{"type":"Feature","properties":{"name":"Österreich"},"geometry":{"type":"MultiPolygon","coordinates":[[[[10.45444,47.5557964],[10.4387193,47.5235235],[10.4405295,47.5134758],[10.4313005,47.5037634],[10.4425962,47.4846349],[10.4637456,47.4827517],[10.4679703,47.4771102],[10.465885,47.4529567],[10.4759458,47.4322233],[10.459196,47.4281326],[10.4561912,47.4192027],[10.4374211,47.412688],[10.4292146,47.3912178],[10.4367645,47.3803634],[10.4197079,47.3846405],[10.4134065,47.3785872],[10.39473,47.3756053],[10.3887561,47.369628],[10.3864718,47.356586],[10.3569007,47.3370375],[10.3458103,47.3219703],[10.3487496,47.3173721],[10.3303332,47.3048155],[10.3165844,47.306745],[10.2956547,47.2999039],[10.2816336,47.2877139],[10.2658093,47.2881085],[10.2595321,47.2814206],[10.2455919,47.2803756],[10.2323656,47.2705777],[10.222434,47.2758352],[10.2012358,47.276902],[10.1740416,47.2702482],[10.172077,47.2790762],[10.1796106,47.2960256],[10.1991314,47.2975423],[10.2159718,47.311064],[10.1995092,47.3264601],[10.2074173,47.3323161],[10.2042369,47.3367531],[10.2169885,47.3543552],[10.2371623,47.3735651],[10.2316784,47.3789694],[10.2361856,47.3819213],[10.227051,47.388895],[10.2125912,47.3803897],[10.181849,47.3924258],[10.1813043,47.3872516],[10.1693975,47.3858299],[10.1695804,47.3712997],[10.1658749,47.3688749],[10.1416871,47.36718],[10.1193354,47.375613],[10.0998516,47.3547618],[10.0828437,47.3938062],[10.0862396,47.3995221],[10.0691405,47.410176],[10.07418,47.4147226],[10.0937374,47.4168811],[10.1055856,47.4287167],[10.0938486,47.4404644],[10.091638,47.4589276],[10.0699906,47.4559503],[10.064681,47.4636357],[10.0534684,47.4668571],[10.0541256,47.4758854],[10.0447745,47.4876222],[10.0007641,47.4821056],[9.9873585,47.4984652],[9.9956949,47.5027787],[9.965262,47.5208928],[9.9683952,47.5280172],[9.9648355,47.538031],[9.9707109,47.5457143],[9.9588525,47.5431711],[9.9636997,47.5347198],[9.9410791,47.5382227],[9.9218947,47.5296364],[9.913579,47.532546],[9.9066603,47.5421716],[9.8812471,47.5481426],[9.8751486,47.543427],[9.8780368,47.5387569],[9.8745052,47.5285372],[9.8502301,47.5416393],[9.8157872,47.5476661],[9.8256191,47.5592156],[9.8207568,47.5708563],[9.8272819,47.579972],[9.8238141,47.5871045],[9.7999863,47.5961014],[9.7769663,47.5954393],[9.7693306,47.5873852],[9.7656021,47.5890994],[9.7619689,47.5809636],[9.7563266,47.5796315],[9.7564395,47.5727671],[9.7480649,47.5705239],[9.7520662,47.5674668],[9.7434285,47.5588072],[9.7470841,47.555687],[9.7351711,47.5466141],[9.7347836,47.5339558],[9.6803596,47.5233576],[9.5587204,47.5418932],[9.5619967,47.4962948],[9.5816705,47.4832853],[9.5951426,47.4633095],[9.6029192,47.4620083],[9.609044,47.4705422],[9.6223413,47.457472],[9.658994,47.4522045],[9.6444766,47.4336636],[9.6516178,47.404626],[9.6740824,47.3901488],[9.6731406,47.3810655],[9.6624091,47.3710805],[9.6244598,47.3661451],[9.6052835,47.3514775],[9.5882928,47.317549],[9.5565198,47.2984176],[9.5461797,47.2800301],[9.5307487,47.270581],[9.5672289,47.2418757],[9.5517691,47.223753],[9.5685593,47.2197899],[9.5848953,47.2053468],[9.5725939,47.1907921],[9.5731328,47.1755934],[9.5646263,47.1702461],[9.5794579,47.1711394],[9.5967665,47.1628904],[9.6087141,47.1477674],[9.6216696,47.1513474],[9.6258533,47.1458871],[9.6247287,47.132625],[9.6350038,47.1280857],[9.6208325,47.1105398],[9.6343754,47.1011664],[9.6335324,47.0834247],[9.6115853,47.0794544],[9.6134454,47.0694836],[9.6070544,47.0607725],[9.6172016,47.0536259],[9.6326718,47.0512522],[9.6450573,47.059775],[9.6818398,47.0620979],[9.6881914,47.0552262],[9.7076239,47.0538077],[9.7070102,47.0480458],[9.718211,47.0433745],[9.7418488,47.042675],[9.7480774,47.0369227],[9.7849142,47.0384853],[9.8075641,47.0235627],[9.8361195,47.012531],[9.8527287,47.0164129],[9.8597449,47.0232098],[9.8774876,47.0206984],[9.8803497,47.0172237],[9.8707338,47.0096536],[9.8887771,47.0007231],[9.8923039,46.9903589],[9.8707312,46.9632091],[9.8787197,46.9570665],[9.8748781,46.9503903],[9.8765706,46.9407057],[9.8807189,46.9400674],[9.8761296,46.9346278],[9.9123097,46.9260554],[9.9372253,46.9133112],[9.9778951,46.9159003],[9.9824336,46.9061986],[9.9901098,46.9024082],[10.0059087,46.8987998],[10.0178184,46.9016148],[10.0519377,46.8767513],[10.0511978,46.8639422],[10.0874505,46.8611963],[10.0926731,46.8581338],[10.0919772,46.8514316],[10.1054563,46.8408629],[10.1230851,46.8484838],[10.169062,46.8506592],[10.1936587,46.8664423],[10.2326652,46.8662925],[10.2348302,46.8846816],[10.2257169,46.8959397],[10.2420114,46.9188282],[10.2405831,46.9313701],[10.2968663,46.9199499],[10.3007876,46.9246539],[10.3160518,46.9251765],[10.3171752,46.9309553],[10.3061823,46.9401424],[10.3077409,46.9472666],[10.3278289,46.9539816],[10.3295077,46.9642765],[10.3465112,46.9895904],[10.372071,46.9906726],[10.3893181,47.0005251],[10.4268035,46.9754181],[10.4220114,46.9607632],[10.426142,46.957465],[10.4555774,46.9528425],[10.4893516,46.9377888],[10.4852822,46.9314418],[10.4862047,46.9154534],[10.4785285,46.9105884],[10.4750778,46.8942849],[10.4646828,46.8842734],[10.4712624,46.8729572],[10.4696512,46.8549096],[10.4787475,46.8590808],[10.4907005,46.8500042],[10.4954663,46.8521446],[10.494062,46.8486881],[10.5210203,46.845423],[10.5553028,46.8485959],[10.5461881,46.8372714],[10.5901545,46.8503285],[10.59554,46.8572784],[10.6491897,46.8655364],[10.6673854,46.8754951],[10.6967701,46.8626264],[10.6941249,46.8521541],[10.7167274,46.8470704],[10.722115,46.8378932],[10.7552364,46.8329744],[10.7635261,46.8234685],[10.7513359,46.8150839],[10.743951,46.8029914],[10.7261027,46.797859],[10.7301056,46.7884475],[10.7574482,46.7851773],[10.7863343,46.7963107],[10.8141084,46.7751316],[10.8254665,46.7731066],[10.8320776,46.7804426],[10.8406642,46.7817996],[10.8530055,46.7740347],[10.8673608,46.7723629],[10.8685586,46.7658199],[10.882964,46.762851],[10.9232552,46.7753452],[10.9748534,46.7725737],[10.9931331,46.7670159],[11.0138578,46.7721304],[11.024751,46.7664193],[11.0360697,46.7938929],[11.0442056,46.8009068],[11.0392751,46.8050342],[11.057021,46.8081289],[11.0833307,46.8222859],[11.0776824,46.8342575],[11.070326,46.8383743],[11.074848,46.8434161],[11.0714403,46.853266],[11.1016173,46.8896465],[11.0970757,46.8913512],[11.0959511,46.9119051],[11.1092843,46.9159927],[11.1095634,46.926007],[11.114937,46.9313904],[11.1388158,46.927506],[11.1641438,46.9399384],[11.1681309,46.9450454],[11.1627168,46.9499312],[11.1644467,46.9658177],[11.1764792,46.9626301],[11.1952993,46.9704547],[11.2070357,46.9624844],[11.2206915,46.9691723],[11.2566435,46.9741692],[11.2635427,46.9807704],[11.2880828,46.9859565],[11.3078452,46.984075],[11.3203456,46.9923799],[11.337007,46.9848758],[11.345739,46.9906851],[11.3586739,46.9905585],[11.3822608,46.9705833],[11.4056144,46.9648163],[11.4403118,46.9751795],[11.4526196,46.9923163],[11.4698665,46.9952271],[11.4700513,47.0025848],[11.4787804,47.0109818],[11.5126325,47.0051409],[11.5385399,46.9840841],[11.581406,46.997132],[11.5812129,47.0020648],[11.5895457,47.0054635],[11.6272105,47.0133005],[11.6349404,47.0031048],[11.6646887,46.9917472],[11.7114655,46.9932355],[11.7276809,46.9723754],[11.7470344,46.9688735],[11.765595,46.9735298],[11.7817896,46.9924638],[11.8362055,46.993008],[11.8449887,47.0016735],[11.8523724,47.0001163],[11.8679977,47.0115857],[11.8927094,47.0163673],[11.9166932,47.0331774],[11.9330469,47.037567],[11.9471987,47.0334663],[11.9557049,47.042978],[11.968476,47.0405329],[11.9793833,47.0500446],[12.0212665,47.0472656],[12.0440859,47.0614393],[12.0766715,47.0588878],[12.0817035,47.0689569],[12.0938339,47.0769556],[12.1189335,47.0732272],[12.1360243,47.0806701],[12.1607468,47.0817163],[12.1859695,47.0921485],[12.226962,47.0821156],[12.240755,47.0691709],[12.216569,47.0586865],[12.216682,47.0450895],[12.2047269,47.026883],[12.1802389,47.0254999],[12.1643736,47.0188983],[12.1474215,47.0249027],[12.1213505,47.0070069],[12.1306545,46.993233],[12.1275175,46.9855167],[12.1382048,46.9819881],[12.1365995,46.9654959],[12.1319284,46.9623229],[12.1582249,46.9505335],[12.1686892,46.9373018],[12.1527863,46.9170917],[12.1438199,46.9137844],[12.1615395,46.9069256],[12.1697405,46.9101393],[12.1903574,46.9061184],[12.1995985,46.8960962],[12.1995887,46.8873761],[12.2154215,46.8740059],[12.2323823,46.880685],[12.2418151,46.8908521],[12.2737093,46.8843939],[12.2782238,46.8790776],[12.2758895,46.8726803],[12.2918557,46.865197],[12.2892688,46.8569939],[12.2956384,46.8437635],[12.3067744,46.8412463],[12.3059077,46.8332417],[12.2829344,46.8149423],[12.2922643,46.8026388],[12.2802601,46.7919228],[12.2839422,46.7829307],[12.309219,46.7849669],[12.3574389,46.774972],[12.3691652,46.7403941],[12.3840655,46.7163391],[12.4426169,46.6884515],[12.4743292,46.6865923],[12.4799037,46.6772584],[12.5164551,46.6784535],[12.5471876,46.6592632],[12.5589292,46.6574022],[12.5612642,46.6525155],[12.6036307,46.6561442],[12.6192191,46.6618737],[12.6310439,46.6613938],[12.6336331,46.6549951],[12.6417216,46.651999],[12.6578937,46.6572592],[12.6906419,46.656976],[12.7159269,46.649209],[12.7313958,46.6342959],[12.7451047,46.6378097],[12.7564233,46.6471932],[12.7759404,46.646697],[12.7954088,46.6424144],[12.8016595,46.6344596],[12.818988,46.6281833],[12.8312711,46.6313045],[12.8372865,46.6272574],[12.8336838,46.609891],[12.852714,46.6046143],[12.8654457,46.6099031],[12.8880795,46.606649],[12.927878,46.610562],[12.9488921,46.6022459],[12.9565485,46.6065035],[12.9871846,46.5994471],[13.0214992,46.6022284],[13.0276253,46.5972221],[13.0466232,46.5953033],[13.0855716,46.6017845],[13.1463337,46.5870975],[13.1686047,46.5889037],[13.1791333,46.5778026],[13.1932291,46.572348],[13.2173526,46.5704978],[13.2323728,46.5589605],[13.2325591,46.5536274],[13.23979,46.5517007],[13.252572,46.5604481],[13.2610421,46.5573076],[13.2694727,46.5612599],[13.28529,46.557088],[13.2975519,46.5602932],[13.3205735,46.5512327],[13.344723,46.570001],[13.3704904,46.5669938],[13.3683952,46.5737781],[13.3722403,46.5792771],[13.4098573,46.5720601],[13.407502,46.5614953],[13.4265844,46.5576034],[13.4747245,46.5573486],[13.5042521,46.5663077],[13.5053889,46.5559271],[13.519886,46.5469057],[13.5426625,46.5536086],[13.5613003,46.5518445],[13.5709177,46.538851],[13.5829296,46.5396897],[13.5920032,46.5461667],[13.6229121,46.5421464],[13.6804148,46.5216896],[13.721468,46.5234613],[13.7374045,46.5170752],[13.7780618,46.5173909],[13.7801576,46.5121111],[13.7944625,46.5053395],[13.8122031,46.5062023],[13.8312998,46.5186698],[13.8552923,46.5138644],[13.8819842,46.5227736],[13.9120536,46.5211288],[13.9887601,46.4928983],[13.9895335,46.4883321],[14.006498,46.4813609],[14.0209275,46.4816406],[14.035978,46.4917001],[14.0507511,46.4931917],[14.1215201,46.4766104],[14.1352019,46.4585696],[14.1350189,46.4509819],[14.1632223,46.4336044],[14.1764899,46.4339612],[14.1910945,46.4439308],[14.2069079,46.4393324],[14.219293,46.443241],[14.2371961,46.4322177],[14.2832033,46.4435026],[14.3015667,46.4383178],[14.3081472,46.4306294],[14.3261652,46.4310081],[14.3440642,46.4373734],[14.4296063,46.4470427],[14.438368,46.4429001],[14.4301403,46.4360969],[14.4421543,46.4280684],[14.4426317,46.4230613],[14.4764295,46.4198099],[14.4788929,46.4135123],[14.4922126,46.412924],[14.5055557,46.4242165],[14.5217621,46.4272596],[14.5398729,46.4115908],[14.5568131,46.3851588],[14.5568609,46.3764966],[14.5641173,46.3722987],[14.5816764,46.3816582],[14.5786589,46.3841061],[14.586135,46.3922513],[14.5893862,46.4095919],[14.5825389,46.4181346],[14.5864251,46.4297466],[14.5959725,46.4368202],[14.6596559,46.4444962],[14.6747946,46.4506781],[14.679299,46.4578126],[14.6756421,46.461805],[14.6832025,46.4678935],[14.6993946,46.4636876],[14.7023782,46.4673174],[14.6975687,46.4744814],[14.7021256,46.4804233],[14.7092395,46.480862],[14.7147636,46.4999596],[14.7284024,46.4903281],[14.7412975,46.5052062],[14.7483348,46.4975993],[14.7600184,46.504535],[14.7768163,46.5046024],[14.7854698,46.4994832],[14.8186088,46.5093839],[14.8176033,46.5219774],[14.8251926,46.529763],[14.822938,46.5355915],[14.8318602,46.5393228],[14.8230581,46.5459024],[14.8322958,46.5485321],[14.8402579,46.5727625],[14.852037,46.5806503],[14.8565175,46.5921406],[14.864772,46.5933024],[14.8704007,46.6072185],[14.9008825,46.6120434],[14.9044858,46.6048734],[14.9138105,46.6063434],[14.9195671,46.6020793],[14.9236225,46.6047484],[14.9228825,46.6208928],[14.9312359,46.6153208],[14.9556718,46.6327173],[14.9710147,46.6239926],[14.979376,46.6014039],[15.0161603,46.6408348],[15.0410367,46.6517696],[15.0650848,46.65201],[15.0824241,46.6451691],[15.0879176,46.6519883],[15.1074934,46.6596856],[15.1285606,46.6500099],[15.1453424,46.659838],[15.1670526,46.6540718],[15.1822619,46.6561441],[15.1973524,46.6457373],[15.2359029,46.6393806],[15.2773673,46.6436182],[15.3010998,46.6532283],[15.31943,46.6478482],[15.3279894,46.6532102],[15.3441964,46.6508452],[15.3537368,46.65499],[15.3722949,46.6497447],[15.4140706,46.655544],[15.4233163,46.6526934],[15.4217095,46.6472343],[15.4393534,46.6398648],[15.4568522,46.6389778],[15.455061,46.6301217],[15.4636692,46.6230213],[15.462113,46.6152523],[15.474742,46.612049],[15.488185,46.6207208],[15.5022692,46.6139078],[15.5371088,46.6339155],[15.5424423,46.6299516],[15.5498331,46.638486],[15.5438654,46.6460858],[15.5535165,46.6514136],[15.5436841,46.6692925],[15.5591975,46.6711031],[15.5775909,46.6831706],[15.5900268,46.6832862],[15.595118,46.6900134],[15.6085462,46.6876732],[15.6053498,46.6811474],[15.6299763,46.6800447],[15.6387016,46.6914185],[15.6536472,46.692098],[15.6499922,46.7057582],[15.6763144,46.7067352],[15.6957757,46.698825],[15.7215553,46.6958318],[15.7684547,46.6990134],[15.8006981,46.7151325],[15.8396929,46.7223886],[15.8713011,46.7209075],[15.9116757,46.7100623],[15.9470675,46.6890612],[15.9983627,46.6805841],[16.0108055,46.6648918],[16.0380813,46.6561372],[16.0425039,46.6858889],[16.0288009,46.7008595],[16.0298175,46.7116107],[16.0035908,46.7171618],[15.9847829,46.7519612],[15.9897569,46.7577867],[15.9923564,46.8030901],[15.998117,46.809228],[15.985371,46.827301],[15.991012,46.8328265],[15.9962508,46.8353987],[16.0076586,46.830636],[16.027346,46.8411264],[16.0323782,46.832705],[16.0429592,46.8407728],[16.0583798,46.8386634],[16.065635,46.8498753],[16.0793024,46.852755],[16.0919316,46.8645806],[16.0992095,46.8603912],[16.110292,46.8688193],[16.1329696,46.8756221],[16.1630109,46.9048724],[16.1792429,46.9066531],[16.1999041,46.9417955],[16.217628,46.9408636],[16.2174589,46.9361158],[16.2220532,46.9355965],[16.2283814,46.9431647],[16.2456579,46.9467296],[16.2427752,46.9559942],[16.2494512,46.9613101],[16.2764371,46.9626383],[16.2757909,46.9840629],[16.2900942,47.0139621],[16.2986133,47.0095024],[16.2985669,47.0013861],[16.3033732,46.9982764],[16.3224695,47.002564],[16.3417487,46.996164],[16.3498297,47.0103972],[16.3672738,47.0062678],[16.3728621,46.9984005],[16.412623,47.0047414],[16.419868,46.996264],[16.4323446,46.9926676],[16.4454751,46.9932088],[16.4460951,47.0025509],[16.4515012,47.00429],[16.4792132,46.99382],[16.4891677,47.0003792],[16.5123446,47.0015764],[16.4926518,47.0100895],[16.4821956,47.0226787],[16.4776919,47.0213286],[16.475108,47.0272838],[16.4636468,47.0322506],[16.4477922,47.0226697],[16.4388931,47.0297151],[16.4450733,47.0387319],[16.5066718,47.0495533],[16.5205761,47.0561924],[16.5204538,47.0615487],[16.5100747,47.0662761],[16.4870387,47.068887],[16.4824778,47.0750182],[16.4729121,47.0735893],[16.4747326,47.0853184],[16.4633499,47.0949728],[16.4746543,47.1051616],[16.484766,47.1026133],[16.4828773,47.1087599],[16.500723,47.1102011],[16.4998813,47.1234162],[16.5293271,47.1272382],[16.5287808,47.1373184],[16.5167749,47.1493285],[16.4542992,47.1423097],[16.4490656,47.1518814],[16.4606163,47.1590826],[16.4643423,47.1681951],[16.4549183,47.1873746],[16.4292721,47.1846768],[16.4194949,47.194925],[16.4189415,47.2106229],[16.4365993,47.2099457],[16.4381661,47.2299101],[16.4427511,47.2337388],[16.44173,47.2486007],[16.4317869,47.2529454],[16.4486808,47.2504692],[16.446579,47.2533683],[16.461078,47.2560232],[16.4671325,47.2528926],[16.479948,47.2625727],[16.4794528,47.2780034],[16.4894219,47.2802867],[16.4645412,47.3338592],[16.4484686,47.3394482],[16.4337197,47.3528283],[16.4523462,47.3571154],[16.4568596,47.3710321],[16.4514082,47.379679],[16.4613946,47.3834846],[16.4506655,47.3929305],[16.445457,47.4072195],[16.4581571,47.4130488],[16.4853411,47.4089007],[16.4906691,47.4056979],[16.4838418,47.3979418],[16.496563,47.3962951],[16.4965697,47.3890498],[16.5099311,47.3964839],[16.5078586,47.4050271],[16.5169091,47.4105951],[16.5757354,47.4063586],[16.5810343,47.4192927],[16.6118053,47.4316307],[16.6203641,47.4307595],[16.6275012,47.4421011],[16.6620322,47.4557137],[16.6597478,47.4614157],[16.6704924,47.4742622],[16.6523387,47.5003255],[16.6624664,47.5090313],[16.6689584,47.5035445],[16.6898176,47.5104226],[16.7055033,47.5229375],[16.7031732,47.5332242],[16.7145237,47.5399337],[16.6981815,47.5456289],[16.6889017,47.5594881],[16.6721712,47.559751],[16.6645567,47.5662605],[16.6751269,47.5787886],[16.6664014,47.5962606],[16.6731434,47.6049581],[16.6595343,47.6061018],[16.6521179,47.622856],[16.6315853,47.6281794],[16.593396,47.617849],[16.572515,47.6198261],[16.5144416,47.6461448],[16.5064854,47.6383877],[16.4969303,47.639336],[16.4873199,47.6417648],[16.4800082,47.6498788],[16.4398585,47.6566843],[16.4215432,47.6652971],[16.443356,47.6741131],[16.4473224,47.6963055],[16.4539869,47.6968378],[16.4619702,47.6826905],[16.4746589,47.6812582],[16.4760169,47.6901214],[16.4845884,47.6914448],[16.4862925,47.6973578],[16.4998365,47.70472],[16.5169186,47.7069254],[16.520629,47.7122541],[16.5411128,47.7121671],[16.5522184,47.7225134],[16.5364648,47.7366327],[16.5487785,47.7431786],[16.54798,47.751544],[16.6091111,47.7603722],[16.6343,47.7590763],[16.6397433,47.7482637],[16.6560139,47.7416628],[16.7209415,47.7353349],[16.7215112,47.7226116],[16.7490282,47.6814296],[16.8283274,47.6827354],[16.8390637,47.7045815],[16.8555211,47.7110747],[16.8669034,47.7216437],[16.8716322,47.6901055],[16.875161,47.6883411],[16.9125396,47.6876875],[17.0930722,47.7082534],[17.070272,47.7282005],[17.0671746,47.7669029],[17.0509772,47.7939831],[17.0744337,47.8082742],[17.0608505,47.8227248],[17.0469132,47.828352],[17.0516099,47.8379073],[17.0099539,47.8583609],[17.0177571,47.8684094],[17.0400344,47.8668249],[17.0777945,47.8775411],[17.0851896,47.8744352],[17.1041555,47.8992602],[17.0955832,47.904294],[17.1126871,47.9273598],[17.0909057,47.934408],[17.1170151,47.9608948],[17.0946624,47.970872],[17.1607728,48.0066643],[17.143822,48.020188],[17.1267451,48.0209378],[17.11006,48.031224],[17.089866,48.019783],[17.067423,48.031428],[17.08779,48.045676],[17.06825,48.055395],[17.086791,48.065356],[17.0722296,48.0704568],[17.078914,48.078236],[17.0715723,48.0809405],[17.0745562,48.0859222],[17.0931398,48.091431],[17.087769,48.096557],[17.0927073,48.0996453],[17.077419,48.10595],[17.072873,48.110292],[17.077065,48.1151054],[17.062786,48.12148],[17.068816,48.124208],[17.0571997,48.1437267],[17.0260727,48.141152],[17.0125866,48.153325],[16.9762313,48.1721643],[16.9764373,48.189369],[16.96178,48.220827],[16.946121,48.235881],[16.957066,48.263818],[16.945578,48.270532],[16.9226772,48.2721084],[16.9075325,48.288423],[16.894541,48.311242],[16.908545,48.32619],[16.871656,48.337952],[16.873438,48.348665],[16.850786,48.348],[16.842703,48.352398],[16.8411617,48.3717164],[16.8332771,48.3812693],[16.8502753,48.3829934],[16.8559114,48.396247],[16.8505075,48.4100352],[16.8636325,48.4193684],[16.8516701,48.4349311],[16.850008,48.449159],[16.863119,48.453035],[16.859476,48.459367],[16.87383,48.467459],[16.8807221,48.4774916],[16.889987,48.47636],[16.896243,48.486257],[16.889953,48.491725],[16.8960647,48.4965462],[16.91698,48.495458],[16.913914,48.511954],[16.92215,48.51343],[16.921267,48.520117],[16.9431781,48.5216327],[16.940435,48.527232],[16.953933,48.54326],[16.942687,48.552416],[16.9446,48.560193],[16.935647,48.571415],[16.939144,48.58313],[16.933595,48.600626],[16.941923,48.606053],[16.9401004,48.6172071],[16.9187277,48.6225109],[16.9283893,48.6384307],[16.919302,48.651282],[16.9233119,48.6695574],[16.9104904,48.6757116],[16.9185529,48.6934773],[16.9020264,48.7179742],[16.8862672,48.716238],[16.879201,48.7229966],[16.8694468,48.7124757],[16.8415095,48.7114996],[16.8342644,48.7165319],[16.822266,48.7103292],[16.8053675,48.7121872],[16.8003328,48.705905],[16.7898668,48.7138481],[16.7757913,48.7119428],[16.7637058,48.7187381],[16.7572906,48.7169795],[16.7472849,48.7321136],[16.7367427,48.7292583],[16.7247482,48.7380313],[16.7011238,48.7365397],[16.6825892,48.7277883],[16.6735319,48.7405814],[16.6808413,48.7500507],[16.6776491,48.766486],[16.6639987,48.7755365],[16.6637463,48.7810087],[16.6418744,48.7858791],[16.6286498,48.78014],[16.5935885,48.7826671],[16.593641,48.7868442],[16.5823667,48.7920671],[16.5651798,48.7935574],[16.5407301,48.8142868],[16.5186339,48.798246],[16.5161439,48.80265],[16.4783441,48.8020508],[16.4604147,48.8090251],[16.4618977,48.8046371],[16.4487003,48.7993759],[16.447911,48.7907685],[16.4357652,48.7781923],[16.4392717,48.7743191],[16.4350029,48.7656278],[16.4192507,48.7591787],[16.4103011,48.7432904],[16.3951903,48.7363531],[16.3887737,48.739063],[16.3780011,48.7284669],[16.359771,48.7280656],[16.3514457,48.733643],[16.3566799,48.7384991],[16.3427322,48.7456221],[16.336232,48.7323023],[16.3298843,48.7312458],[16.2779029,48.7415129],[16.2630597,48.7370072],[16.1539723,48.7487882],[16.1498896,48.7431934],[16.1389411,48.742749],[16.1171718,48.7482529],[16.0941645,48.7466426],[15.9943646,48.7793352],[15.9496301,48.8052493],[15.9583818,48.8230603],[15.9467171,48.8225119],[15.9479149,48.8266819],[15.9418347,48.8277269],[15.9404289,48.8195039],[15.9345717,48.819112],[15.9241722,48.8245605],[15.9309152,48.8335584],[15.9198443,48.8387656],[15.8932393,48.8346358],[15.8928298,48.8433031],[15.8977538,48.838095],[15.9051808,48.8388504],[15.8976366,48.8483732],[15.884597,48.8420123],[15.8768896,48.85953],[15.871359,48.8602619],[15.8749507,48.8549973],[15.8643273,48.8523564],[15.8427465,48.8596044],[15.8521481,48.8671456],[15.8415432,48.8771245],[15.8275827,48.8710458],[15.7795341,48.8748829],[15.753663,48.8521737],[15.7091117,48.8606828],[15.689687,48.8556761],[15.6557186,48.8814378],[15.6389191,48.8872939],[15.6303115,48.8850176],[15.6124358,48.8982547],[15.577999,48.8958612],[15.5586188,48.9045968],[15.5133902,48.9141221],[15.5060695,48.9195848],[15.5020114,48.9359742],[15.4684899,48.9518173],[15.4558922,48.9452864],[15.4505088,48.949797],[15.4247543,48.9516077],[15.3669737,48.981884],[15.3322282,48.9848269],[15.3217322,48.9761307],[15.3120943,48.9807537],[15.3056931,48.9779183],[15.2910273,48.9843191],[15.2936752,48.9890797],[15.2899864,48.9924605],[15.2788737,48.994659],[15.2757795,48.9858381],[15.2813742,48.9793633],[15.2718883,48.9663843],[15.2666958,48.9666419],[15.2690729,48.9582742],[15.2619282,48.957592],[15.2616177,48.9536483],[15.2464009,48.9595127],[15.2244452,48.9601444],[15.2095641,48.957529],[15.1902888,48.9432852],[15.1770125,48.9476945],[15.1602433,48.9416908],[15.1553818,48.9461383],[15.1697853,48.9622538],[15.1594606,48.9721016],[15.1620387,48.9777104],[15.1510859,48.9809471],[15.1575236,48.984831],[15.1562475,48.9932991],[15.1327658,49.0006944],[15.1081558,48.9991301],[15.1025658,48.9938422],[15.0648428,48.9995865],[15.0654261,49.0142211],[15.0408146,49.0114882],[15.0205506,49.0205239],[15.0030296,49.011491],[14.9959183,49.0150866],[14.9904394,49.0096538],[15.0007916,49.0037206],[14.9978219,48.9919621],[14.9845204,48.9865872],[14.976194,48.9710067],[14.9764903,48.9558261],[14.9865209,48.9359238],[14.9790215,48.9280381],[14.9900169,48.9158792],[14.9929179,48.9037114],[14.9889122,48.8910175],[14.9834634,48.8909571],[14.9838233,48.8747459],[14.9729379,48.8746545],[14.9733613,48.8530756],[14.9777331,48.8531254],[14.9845243,48.8423909],[14.9720618,48.8422703],[14.9682833,48.8368424],[14.9697368,48.8239055],[14.9582045,48.8139294],[14.9605077,48.8045259],[14.9553028,48.8013592],[14.9532569,48.7897844],[14.9788989,48.7801734],[14.9795006,48.7722608],[14.9557928,48.7580851],[14.9177191,48.7698425],[14.8880926,48.7700775],[14.8812929,48.7801091],[14.8682676,48.7810506],[14.8571579,48.7757812],[14.8425368,48.7839696],[14.8292839,48.7804892],[14.8255271,48.7838498],[14.8086608,48.7788018],[14.8062837,48.7717198],[14.8114993,48.7614504],[14.8004926,48.7473879],[14.8081323,48.7338828],[14.7943699,48.7298206],[14.7740393,48.7116422],[14.7570452,48.7093303],[14.7553875,48.7032301],[14.7365659,48.6989322],[14.7269676,48.6870691],[14.72701,48.6787272],[14.7123407,48.6500974],[14.7185261,48.6491638],[14.7221544,48.6384352],[14.7140942,48.617448],[14.7211369,48.6023788],[14.7081109,48.5935868],[14.7077162,48.5870516],[14.701529,48.582692],[14.6634582,48.5819592],[14.6537968,48.6043363],[14.6456874,48.6100569],[14.6263686,48.6045086],[14.6104736,48.6281063],[14.5640206,48.6084047],[14.5620564,48.6033296],[14.5465656,48.6145996],[14.5264182,48.6147408],[14.5156319,48.6198518],[14.5032907,48.6173668],[14.4950925,48.6224833],[14.4929996,48.6329217],[14.4765801,48.6394795],[14.4698709,48.6484941],[14.4591387,48.6433281],[14.4437604,48.6434296],[14.4560481,48.6251396],[14.4473037,48.6198083],[14.4422058,48.6002176],[14.435476,48.5980444],[14.4314131,48.5891316],[14.386243,48.5926724],[14.3877366,48.5832368],[14.3935902,48.5786596],[14.3880813,48.5718809],[14.3712645,48.5695497],[14.3658441,48.5758429],[14.3576724,48.5746466],[14.3531214,48.5624723],[14.3332343,48.5518081],[14.327113,48.5540735],[14.3243309,48.5642427],[14.2955995,48.5680678],[14.2715453,48.5813734],[14.2405638,48.57765],[14.2281962,48.5852152],[14.1943855,48.5927286],[14.1635271,48.589236],[14.1544559,48.5958787],[14.1418773,48.5937473],[14.1301889,48.5977588],[14.1158363,48.5891601],[14.0955755,48.5922383],[14.0970844,48.5998368],[14.0722448,48.5998758],[14.066963,48.5948589],[14.0689955,48.6069745],[14.0542382,48.6041322],[14.0421494,48.6128659],[14.0481344,48.6273669],[14.0286927,48.626163],[14.0105583,48.6396542],[14.0228523,48.6455611],[14.024183,48.6526568],[14.0535237,48.6529256],[14.0600526,48.6639651],[14.0594662,48.6738245],[14.0341578,48.6769846],[14.0245561,48.6833936],[14.0286682,48.6853809],[14.0253687,48.6890868],[14.016167,48.6918912],[14.0181702,48.6962424],[14.0099359,48.6953656],[14.0133576,48.6984259],[14.003394,48.7085324],[13.9558864,48.7144143],[13.9536871,48.7207311],[13.9391527,48.7232315],[13.895466,48.7570785],[13.8684066,48.7696228],[13.8432226,48.7725637],[13.8361394,48.7627366],[13.8209882,48.7543909],[13.8190824,48.7318268],[13.7948921,48.715082],[13.8031943,48.7080561],[13.8114278,48.7086832],[13.8140883,48.7009059],[13.8374328,48.7005483],[13.8335366,48.6918645],[13.8135045,48.6918408],[13.8197758,48.6704343],[13.8140866,48.6496654],[13.8239547,48.6421367],[13.8257977,48.6185765],[13.8160116,48.6145665],[13.8073849,48.6049755],[13.8086822,48.5999486],[13.8012792,48.5973942],[13.8072938,48.5844378],[13.800936,48.5735982],[13.7903694,48.5718639],[13.7701003,48.553588],[13.7602764,48.5654557],[13.7540706,48.5635695],[13.746664,48.5524091],[13.7548701,48.5511614],[13.7436701,48.5440488],[13.7489133,48.5380086],[13.7477845,48.5293896],[13.7333223,48.5253038],[13.730522,48.514768],[13.7068162,48.5172723],[13.6641008,48.534169],[13.653746,48.548885],[13.6246433,48.5544573],[13.5997712,48.5693883],[13.589713,48.5685337],[13.5815411,48.5596761],[13.5709044,48.5609764],[13.5276986,48.5871515],[13.5089626,48.5905995],[13.5016506,48.5808953],[13.5069693,48.5777326],[13.5040344,48.5725145],[13.4918882,48.569699],[13.4887984,48.5627978],[13.4744974,48.5623713],[13.4753731,48.5560605],[13.4635543,48.5539753],[13.4499793,48.5639468],[13.4378394,48.5574418],[13.4386567,48.548504],[13.450146,48.537649],[13.4464251,48.52358],[13.4581768,48.5119092],[13.4269976,48.456641],[13.4393132,48.4308398],[13.4219562,48.4047174],[13.4113572,48.3747104],[13.3676606,48.3531801],[13.329798,48.3235141],[13.2562164,48.29356],[13.1808424,48.2949917],[13.128223,48.2784592],[13.0805772,48.2771446],[13.0574829,48.2662386],[13.0216802,48.2578178],[12.9561334,48.209281],[12.8700508,48.2013101],[12.8477105,48.1673748],[12.8360466,48.1653333],[12.8275304,48.1529122],[12.7994023,48.1467763],[12.7869191,48.1237109],[12.7589665,48.1269882],[12.7586685,48.1186952],[12.749244,48.1085127],[12.7594809,48.0751672],[12.8502052,48.016211],[12.8739101,47.9639227],[12.9173263,47.9549968],[12.92261,47.9393554],[12.938171,47.9432828],[12.945895,47.9227613],[13.0036153,47.8493221],[13.0027151,47.8417655],[12.9842464,47.8277876],[12.9641876,47.7999998],[12.9395904,47.7850099],[12.9395022,47.7782142],[12.9296018,47.7729835],[12.9277236,47.7698848],[12.9422359,47.7709804],[12.9448157,47.7644088],[12.935126,47.7579298],[12.9352022,47.7473215],[12.9182359,47.7425822],[12.9052586,47.7234349],[12.924907,47.7102937],[12.9464527,47.7121627],[12.9738047,47.7071526],[12.9914808,47.708646],[13.0045312,47.7151269],[13.0086562,47.7223761],[13.0183382,47.7228752],[13.0460629,47.7126266],[13.0608569,47.6971475],[13.0807484,47.6870338],[13.0780811,47.6668746],[13.0989358,47.6351717],[13.0958947,47.6279971],[13.062619,47.6014623],[13.0706416,47.586978],[13.0436523,47.5833636],[13.0426632,47.573717],[13.0507192,47.563552],[13.0574986,47.5621479],[13.0309363,47.5325623],[13.0472929,47.521496],[13.0432772,47.5199306],[13.0476465,47.4921627],[13.0268945,47.4866965],[13.0036669,47.4633962],[12.9934,47.4717096],[12.9948207,47.4786039],[12.9780077,47.4846889],[12.9734779,47.4832616],[12.9726828,47.474304],[12.9681513,47.474451],[12.9087264,47.4969431],[12.8844722,47.5127584],[12.8828416,47.5206153],[12.8517108,47.5307857],[12.8476923,47.5459785],[12.8177288,47.544902],[12.7943155,47.5570041],[12.7791497,47.5791416],[12.7953337,47.5931666],[12.7928837,47.6005732],[12.8073584,47.6102534],[12.8244836,47.6121071],[12.7897064,47.6332181],[12.7809381,47.6326508],[12.7585755,47.6515501],[12.7784548,47.660917],[12.7840532,47.6715362],[12.7811652,47.6738182],[12.7720703,47.6656349],[12.7572069,47.6630364],[12.7460726,47.6749897],[12.7321173,47.6796706],[12.715232,47.6762902],[12.7051123,47.6811271],[12.6782362,47.6824604],[12.6661134,47.6810368],[12.648313,47.6701181],[12.6300882,47.6762168],[12.6073437,47.6737269],[12.5969025,47.6661084],[12.5750269,47.6323152],[12.536374,47.6364725],[12.5122716,47.625307],[12.4991695,47.6251006],[12.4913477,47.6369024],[12.465113,47.649733],[12.4527426,47.6678963],[12.440743,47.6739052],[12.4400708,47.6952305],[12.3636175,47.6838421],[12.3514538,47.6920989],[12.3361021,47.6918137],[12.3380351,47.697055],[12.2847204,47.6901459],[12.2632436,47.6783215],[12.2552499,47.6794511],[12.2412609,47.6943766],[12.2469234,47.7109573],[12.2649807,47.7325165],[12.2570286,47.7430345],[12.2497055,47.7415525],[12.2267425,47.7181373],[12.2036359,47.7074327],[12.1964516,47.7084799],[12.1835036,47.7004961],[12.1624246,47.701167],[12.1683802,47.680558],[12.1822372,47.668039],[12.1990868,47.6408506],[12.2082498,47.6134704],[12.2039614,47.6067646],[12.1781491,47.6008901],[12.1790043,47.6143898],[12.1290224,47.6056493],[12.1152172,47.6114504],[12.0823518,47.6097453],[12.060719,47.6188294],[12.0512284,47.6148816],[12.0373288,47.6176226],[12.0219093,47.611083],[12.0085326,47.6251781],[11.9809046,47.6188651],[11.976229,47.6129776],[11.9681661,47.6172392],[11.9136975,47.613838],[11.9022567,47.6082267],[11.8549553,47.6023579],[11.8440415,47.5812118],[11.7810482,47.5911967],[11.6603082,47.5838042],[11.6361799,47.5945549],[11.631042,47.5866321],[11.6334888,47.5805894],[11.6195346,47.5843831],[11.6057627,47.5810794],[11.5999481,47.5665075],[11.5868807,47.5547196],[11.5881089,47.5254507],[11.5724166,47.5145064],[11.5337173,47.5088714],[11.5186116,47.5110024],[11.5056645,47.5047271],[11.487603,47.5090036],[11.4493318,47.5072432],[11.44209,47.517917],[11.3908127,47.4821578],[11.3838429,47.4723745],[11.3899958,47.4669484],[11.4094382,47.4667359],[11.4211938,47.4445915],[11.3769449,47.4491734],[11.3645376,47.4448188],[11.3386129,47.4499229],[11.3296715,47.4380969],[11.2910304,47.4270797],[11.290057,47.4072642],[11.2698847,47.3975653],[11.2249594,47.3952524],[11.2240265,47.4015382],[11.2534161,47.4282377],[11.2489708,47.4325754],[11.2069902,47.4339396],[11.198392,47.4276344],[11.1280711,47.4121964],[11.1225528,47.4063541],[11.1238288,47.3996333],[11.114824,47.3954556],[11.028455,47.393369],[11.0231808,47.3970782],[11.0049719,47.3941292],[10.9718964,47.3995575],[10.968792,47.4118666],[10.9716929,47.4172673],[10.9846583,47.4210258],[10.9836122,47.4300177],[10.9295387,47.4702317],[10.9371742,47.4811371],[10.9099244,47.4855481],[10.8814595,47.479178],[10.8700396,47.483255],[10.8719887,47.5003627],[10.918007,47.5136312],[10.9158416,47.5193689],[10.9055145,47.5174765],[10.9009027,47.5210562],[10.890311,47.5373142],[10.853562,47.5346673],[10.8385263,47.5254472],[10.8130268,47.5263646],[10.8126224,47.5200321],[10.7954152,47.521195],[10.777508,47.5139211],[10.7637598,47.5195919],[10.763958,47.5282841],[10.7510481,47.537277],[10.7183807,47.538138],[10.6945958,47.5447809],[10.6910027,47.5587703],[10.6347529,47.559044],[10.6190545,47.5668703],[10.5979477,47.5697413],[10.5803298,47.5556614],[10.5817954,47.5479661],[10.5711058,47.5334723],[10.4889121,47.540403],[10.4723343,47.5511101],[10.45444,47.5557964]]],[[[10.45444,47.5557964],[10.4731526,47.5700777],[10.4707128,47.5797253],[10.4820072,47.584485],[10.4370007,47.5841962],[10.428999,47.5776114],[10.4331329,47.5695363],[10.445211,47.5672392],[10.4502075,47.5553621],[10.45444,47.5557964]]]]}}