{"type":"Feature","properties":{"name":"Vorarlberg"},"geometry":{"type":"Polygon","coordinates":[[[9.5307487,47.270581],[9.5338832,47.2678294],[9.5355506,47.266755],[9.5364188,47.2659637],[9.5373024,47.2657574],[9.5378184,47.2661062],[9.5382445,47.2660213],[9.5389804,47.2657523],[9.5393988,47.2652835],[9.5398081,47.2651056],[9.5399026,47.2649049],[9.5397603,47.2646676],[9.5402057,47.2639716],[9.5403944,47.2627686],[9.539649,47.2622918],[9.5393739,47.2618916],[9.5397364,47.2616915],[9.5395219,47.2613519],[9.5430763,47.2594723],[9.5440129,47.2585207],[9.545466,47.2579502],[9.5485015,47.2571098],[9.5498989,47.2561452],[9.5515427,47.2553265],[9.5528792,47.25407],[9.5541805,47.253201],[9.5555923,47.2528054],[9.5572934,47.2510962],[9.5588896,47.2507505],[9.5595012,47.2504668],[9.5605433,47.2492477],[9.5613777,47.2487915],[9.5612607,47.2482905],[9.5615282,47.2482141],[9.5624047,47.2471329],[9.5667246,47.2429152],[9.5672289,47.2418757],[9.5674105,47.240918],[9.5667228,47.2400917],[9.5636647,47.2373],[9.562989,47.2369202],[9.5617896,47.2356906],[9.5596793,47.2341648],[9.5589494,47.2334896],[9.5590302,47.2333536],[9.5580632,47.2326511],[9.5582188,47.2325521],[9.5576749,47.2319382],[9.5575027,47.2312826],[9.55637,47.2301683],[9.556524,47.2300351],[9.5560321,47.2296145],[9.5559294,47.2292161],[9.555501,47.2289636],[9.5552024,47.2281775],[9.5544165,47.2274619],[9.554455,47.227252],[9.5542044,47.2269293],[9.5546885,47.2266654],[9.5545798,47.2264944],[9.5534036,47.2256849],[9.5530347,47.2251187],[9.5524736,47.224991],[9.5527456,47.2247478],[9.5524219,47.2245028],[9.5521955,47.2239919],[9.5517691,47.223753],[9.553695,47.2238172],[9.5543309,47.2241093],[9.5546079,47.2238993],[9.5554392,47.2237924],[9.5554131,47.2225117],[9.5575675,47.2232357],[9.5585475,47.2241186],[9.5591187,47.2237587],[9.5602651,47.2236711],[9.5620017,47.2229232],[9.5632161,47.2218959],[9.5634383,47.2213819],[9.5641948,47.2206401],[9.5647114,47.2207766],[9.5667812,47.2203466],[9.5673598,47.2199636],[9.5679216,47.220028],[9.5685593,47.2197899],[9.5690784,47.2193409],[9.5692633,47.2193734],[9.5723292,47.21626],[9.5756621,47.2137077],[9.5775347,47.2112638],[9.5775013,47.2106583],[9.5784688,47.2088929],[9.5797655,47.2082947],[9.5825737,47.2063194],[9.5848953,47.2053468],[9.5848092,47.2045706],[9.5833063,47.2034781],[9.5824845,47.2016375],[9.5816954,47.2008859],[9.5811691,47.2000083],[9.5805254,47.1984612],[9.5804503,47.1960628],[9.5803175,47.1957775],[9.5791457,47.1956968],[9.5789971,47.1950116],[9.5785891,47.1944107],[9.5774355,47.1938611],[9.5764879,47.1928698],[9.5744427,47.1915823],[9.5732172,47.1909405],[9.5725939,47.1907921],[9.5731821,47.1872193],[9.5735285,47.185962],[9.5733828,47.1837204],[9.5735831,47.1833748],[9.5736764,47.1805121],[9.5735291,47.1787821],[9.5742961,47.1781046],[9.5739143,47.1779626],[9.5733473,47.1772406],[9.5734619,47.1770259],[9.5732668,47.176908],[9.5733012,47.1766486],[9.5735266,47.1764669],[9.5730937,47.1762112],[9.5731328,47.1755934],[9.5717739,47.1751462],[9.5714563,47.1748175],[9.5695262,47.1742976],[9.5672703,47.1731922],[9.5666218,47.1726738],[9.566082,47.1715965],[9.5657419,47.1711781],[9.5654593,47.1710894],[9.5654876,47.1708061],[9.5646263,47.1702461],[9.5653437,47.1703323],[9.5663202,47.1698348],[9.5674346,47.1697698],[9.5678433,47.169894],[9.5688421,47.1695777],[9.569727,47.1699878],[9.5703954,47.1697202],[9.5709198,47.1698047],[9.5713464,47.1694945],[9.5719061,47.1696621],[9.5727569,47.1695436],[9.5749001,47.1697645],[9.577429,47.1706965],[9.5794579,47.1711394],[9.5909273,47.1646872],[9.5967665,47.1628904],[9.597746,47.1615287],[9.6009207,47.158819],[9.6007042,47.1580209],[9.6008073,47.157354],[9.600189,47.1567702],[9.6012761,47.1560344],[9.6012648,47.1558255],[9.6019706,47.1555752],[9.6022085,47.1552379],[9.6022085,47.1548694],[9.6029374,47.1540017],[9.6032129,47.1529529],[9.6031316,47.1527885],[9.6033703,47.152609],[9.6033316,47.1522281],[9.6028447,47.1518467],[9.6028449,47.1516071],[9.6039017,47.1508008],[9.6038342,47.1506381],[9.6048289,47.1501716],[9.6051293,47.1498137],[9.6052806,47.1492082],[9.6067199,47.148672],[9.6069996,47.1484184],[9.6080374,47.1482586],[9.6087141,47.1477674],[9.6101084,47.1475032],[9.6105931,47.1476315],[9.6114151,47.1473795],[9.6121453,47.1475395],[9.6131514,47.1474177],[9.613981,47.1475323],[9.614978,47.1478503],[9.6173913,47.1492594],[9.6187092,47.1497541],[9.6188785,47.1500076],[9.6188016,47.1503486],[9.6205668,47.1516405],[9.6216696,47.1513474],[9.6217929,47.1511697],[9.621412,47.1503676],[9.622014,47.1496396],[9.6219767,47.149297],[9.6227095,47.1487586],[9.6225696,47.1484009],[9.6232162,47.1476608],[9.6232709,47.1471389],[9.6240438,47.1468441],[9.6240057,47.1464962],[9.6245392,47.1461316],[9.6258533,47.1458871],[9.6243337,47.1434359],[9.6234549,47.1426036],[9.6234049,47.1419836],[9.6226337,47.1414029],[9.6226095,47.1411745],[9.6233908,47.1402631],[9.6239077,47.1391629],[9.6250204,47.1384657],[9.6248676,47.1380412],[9.6250088,47.137413],[9.6247239,47.1366816],[9.6248644,47.1365365],[9.6244731,47.1358755],[9.6242627,47.1351116],[9.6247909,47.134229],[9.6246142,47.1338252],[9.624961,47.1333988],[9.6247287,47.132625],[9.6263981,47.1315082],[9.6271505,47.1313764],[9.6284547,47.1306844],[9.629158,47.13076],[9.6300424,47.1304459],[9.631439,47.1292553],[9.6331507,47.1283191],[9.6340162,47.1280024],[9.6346887,47.1281948],[9.6350038,47.1280857],[9.6342602,47.1275739],[9.6337385,47.1269678],[9.6337691,47.1266209],[9.633398,47.1258025],[9.6325986,47.1247607],[9.6319361,47.1244462],[9.6317775,47.1241213],[9.6305424,47.1231964],[9.6304717,47.1229978],[9.6283476,47.1216667],[9.628204,47.1213134],[9.6269211,47.1204149],[9.6265046,47.1198562],[9.6261611,47.1197665],[9.6259376,47.1195017],[9.625532,47.1194481],[9.6251936,47.1191273],[9.624947,47.1187755],[9.6251124,47.1185705],[9.6247425,47.1179995],[9.6246883,47.1161475],[9.6244271,47.1158242],[9.6246796,47.1155742],[9.6245053,47.1147905],[9.6246481,47.1145579],[9.6240752,47.1139052],[9.6240033,47.1133964],[9.623677,47.1131484],[9.6235879,47.1127925],[9.6230327,47.1125586],[9.6225088,47.1119836],[9.621991,47.1117094],[9.6212301,47.1106974],[9.6208325,47.1105398],[9.6219216,47.1086441],[9.6229985,47.1079803],[9.6258881,47.1074553],[9.6284894,47.1075456],[9.6282318,47.1054767],[9.6301654,47.1047393],[9.6321198,47.1029901],[9.6321576,47.1028085],[9.6331755,47.1023152],[9.633253,47.1019466],[9.6336823,47.1014014],[9.6343754,47.1011664],[9.6357143,47.0962365],[9.6356388,47.0946055],[9.635374,47.0906322],[9.6332009,47.0862337],[9.6335324,47.0834247],[9.6330237,47.0832016],[9.6235432,47.0825254],[9.6209387,47.0802167],[9.6205827,47.0796024],[9.620598,47.0793726],[9.6186837,47.0781382],[9.6173582,47.0785504],[9.6155322,47.0788032],[9.6134839,47.0786863],[9.6115263,47.0794026],[9.6116079,47.0790155],[9.6113356,47.078698],[9.6115393,47.0779622],[9.6111669,47.0771886],[9.6113839,47.076588],[9.6108754,47.0755005],[9.6105067,47.0751823],[9.6112983,47.0746604],[9.6118167,47.0738069],[9.6120598,47.073694],[9.6120844,47.0733421],[9.6124443,47.0729415],[9.61249,47.0725739],[9.6133534,47.071394],[9.6134454,47.0694836],[9.6127092,47.0683655],[9.6127037,47.067889],[9.6120621,47.0672888],[9.6111551,47.0668441],[9.61134,47.0662764],[9.6111937,47.0656086],[9.6118102,47.0648472],[9.6116899,47.0644934],[9.6109256,47.0640749],[9.6107973,47.063482],[9.6105619,47.0632694],[9.6099229,47.0630459],[9.6094354,47.0626934],[9.6093856,47.0624277],[9.6087974,47.0618643],[9.6070544,47.0607725],[9.6085783,47.0594446],[9.6090344,47.0593963],[9.6097719,47.0588618],[9.6104066,47.05779],[9.6122378,47.0571982],[9.6124391,47.0569161],[9.613037,47.056597],[9.6131155,47.0562635],[9.6138866,47.0558809],[9.6156368,47.0553624],[9.6164798,47.0546397],[9.6172016,47.0536259],[9.620049,47.0533147],[9.6204174,47.0530454],[9.6218198,47.0527443],[9.6222079,47.0524664],[9.6249728,47.0523852],[9.6252473,47.0520178],[9.6256832,47.051893],[9.6257289,47.0515746],[9.6263272,47.0513274],[9.6275462,47.0517622],[9.6298242,47.0513827],[9.6326718,47.0512522],[9.6349734,47.0516553],[9.6365412,47.051703],[9.6382212,47.0526908],[9.6395009,47.0530908],[9.6413247,47.0539224],[9.641346,47.0543382],[9.6410954,47.0549499],[9.6416235,47.055988],[9.6424109,47.0567985],[9.6424581,47.0570572],[9.6434209,47.0575827],[9.6435927,47.0578524],[9.6434246,47.0582999],[9.6437013,47.0590788],[9.6450573,47.059775],[9.6470452,47.0594288],[9.6480591,47.0595595],[9.6493748,47.0594443],[9.6531717,47.0587893],[9.6543383,47.05833],[9.6562855,47.0584939],[9.6573442,47.058186],[9.6582148,47.0581823],[9.6613177,47.0587529],[9.6628382,47.0595173],[9.6640082,47.059626],[9.6643929,47.0598339],[9.6669103,47.0599211],[9.6692706,47.0592547],[9.6716165,47.0598136],[9.6726832,47.0597122],[9.6733559,47.0601027],[9.6740329,47.0600513],[9.6747949,47.0605814],[9.6763423,47.0606672],[9.6771325,47.0610623],[9.6774508,47.0614067],[9.6798285,47.0622131],[9.6818398,47.0620979],[9.6826403,47.0603357],[9.6825153,47.059528],[9.6820807,47.0588839],[9.6838052,47.0579578],[9.6837221,47.0578312],[9.6839177,47.0576471],[9.6850105,47.0572888],[9.6850166,47.0571373],[9.6858367,47.05666],[9.6862227,47.0565988],[9.6863082,47.0563569],[9.6867879,47.0562853],[9.6867831,47.0560734],[9.6879708,47.0557771],[9.6880081,47.0556367],[9.6878342,47.0555486],[9.6881914,47.0552262],[9.6900364,47.0551014],[9.6924962,47.054591],[9.6929877,47.0542471],[9.6930916,47.0539251],[9.6962463,47.0531229],[9.69756,47.0523884],[9.7004574,47.0524848],[9.7015891,47.0522048],[9.7041599,47.05261],[9.7070407,47.05377],[9.7076239,47.0538077],[9.7080731,47.0534319],[9.7080502,47.0530912],[9.7085942,47.0516644],[9.7056711,47.0503506],[9.7070102,47.0480458],[9.7081078,47.0476175],[9.7090398,47.0470382],[9.7093481,47.0471091],[9.7111508,47.0465939],[9.7119383,47.0461975],[9.7125167,47.0460924],[9.713003,47.0457289],[9.7139754,47.0458015],[9.7144269,47.0456408],[9.7144713,47.0453823],[9.7149483,47.0451474],[9.7161496,47.0450741],[9.7168312,47.0448609],[9.7170584,47.0446237],[9.7169393,47.0444497],[9.7171985,47.0443407],[9.7171631,47.0440229],[9.7173304,47.0438049],[9.718211,47.0433745],[9.7192228,47.0433872],[9.7194944,47.0435672],[9.7197514,47.0434749],[9.7203941,47.0439201],[9.721806,47.0436772],[9.7227077,47.0438726],[9.7252934,47.0439988],[9.7272188,47.0435716],[9.7277748,47.0436057],[9.7287242,47.0433088],[9.730277,47.0434423],[9.730533,47.0432614],[9.7320382,47.0434058],[9.732209,47.0431327],[9.7330107,47.0429471],[9.7341496,47.0423924],[9.7354955,47.0424052],[9.7357745,47.0423548],[9.7359243,47.0421205],[9.7365334,47.0421949],[9.7381058,47.0418909],[9.7398001,47.0421398],[9.7403513,47.0424189],[9.7418488,47.042675],[9.7415703,47.0422946],[9.7422336,47.0414942],[9.7444406,47.0415037],[9.7452376,47.0411041],[9.7456449,47.0396637],[9.7453077,47.0391342],[9.7460039,47.0391126],[9.746089,47.03877],[9.7464352,47.038543],[9.7465141,47.0380895],[9.7474502,47.0370584],[9.7480774,47.0369227],[9.7509621,47.036978],[9.7527232,47.0367153],[9.7540677,47.0368528],[9.7547054,47.0372507],[9.7561866,47.0372281],[9.7564171,47.0376156],[9.7567345,47.0375749],[9.7569456,47.0378406],[9.7578828,47.0377163],[9.7584766,47.0378095],[9.7588605,47.0373758],[9.7594255,47.0373964],[9.7595913,47.0372525],[9.760716,47.0373827],[9.7614649,47.0376776],[9.7624165,47.0373801],[9.7630769,47.0373717],[9.7643199,47.0379917],[9.7660397,47.0381939],[9.7666436,47.0385994],[9.7673069,47.0387944],[9.7685177,47.0387173],[9.7691335,47.0390113],[9.7694732,47.038821],[9.7709077,47.0389337],[9.773011,47.0387762],[9.7749114,47.039098],[9.7769399,47.0384499],[9.7777078,47.0385143],[9.7784155,47.03882],[9.7793368,47.0384853],[9.7802041,47.0383854],[9.7811003,47.0379742],[9.7823606,47.0384338],[9.7849142,47.0384853],[9.7849012,47.0380373],[9.7850729,47.0379049],[9.7850561,47.0375119],[9.7853063,47.0371365],[9.7852155,47.0368592],[9.7853325,47.0367414],[9.7855621,47.0367302],[9.7866756,47.0357949],[9.7871503,47.0357685],[9.7874653,47.0355219],[9.7889877,47.0351094],[9.7896409,47.0347583],[9.7899526,47.0344644],[9.7900881,47.0340493],[9.7908009,47.0336264],[9.7907751,47.0333873],[9.7911125,47.0330884],[9.7909635,47.0328044],[9.791631,47.0321881],[9.7918885,47.0316862],[9.792682,47.0316015],[9.7929914,47.0312859],[9.7943296,47.0309587],[9.7953112,47.0309215],[9.7954071,47.0303679],[9.7958911,47.0301418],[9.7977126,47.0301291],[9.7979752,47.0300766],[9.7983743,47.0296036],[9.799623,47.0296712],[9.8002293,47.029289],[9.8013994,47.0290874],[9.8015179,47.0289443],[9.8014019,47.0285259],[9.8010401,47.0281495],[9.8025864,47.0275084],[9.8031385,47.0270614],[9.8036587,47.0267844],[9.803865,47.0268261],[9.8038163,47.0267288],[9.8045473,47.0263467],[9.8047283,47.0260022],[9.8057285,47.02545],[9.806211,47.0249803],[9.806641,47.0244836],[9.8065545,47.0241735],[9.8067292,47.0242485],[9.8076952,47.0239227],[9.8075641,47.0235627],[9.8081209,47.0237477],[9.8093824,47.023521],[9.8097201,47.023322],[9.8096475,47.0229644],[9.8099353,47.0227014],[9.8105234,47.0227495],[9.8104713,47.0226635],[9.8113349,47.022427],[9.8117183,47.0225406],[9.8123259,47.0217325],[9.8137411,47.0218339],[9.8139109,47.0220268],[9.814554,47.0222585],[9.8148021,47.0221991],[9.8150058,47.022455],[9.8154465,47.0225433],[9.8157017,47.0222965],[9.8159888,47.0223566],[9.8177933,47.0219028],[9.8177153,47.0217964],[9.8181746,47.0218111],[9.8183411,47.0217376],[9.8182464,47.0216416],[9.8186522,47.0216382],[9.8201989,47.0211147],[9.8205115,47.020748],[9.8212918,47.0205985],[9.8215905,47.0203414],[9.8220598,47.0203828],[9.8226149,47.0200045],[9.8235302,47.0198587],[9.824129,47.0196172],[9.8241404,47.0191078],[9.8246354,47.0188462],[9.824522,47.0186398],[9.8258411,47.0176384],[9.8260973,47.0177183],[9.8262795,47.0175348],[9.8266666,47.0176137],[9.8270581,47.017442],[9.8271617,47.0172273],[9.8278869,47.0169943],[9.8279632,47.0166693],[9.8288933,47.0167446],[9.8295393,47.0159227],[9.8304394,47.0153096],[9.8305121,47.0145915],[9.8307567,47.0143189],[9.8319488,47.0143462],[9.833061,47.0145936],[9.8332717,47.0144548],[9.8335368,47.0145182],[9.8336704,47.0144574],[9.8335908,47.0143269],[9.8338964,47.014321],[9.8337702,47.0141879],[9.8340765,47.0142033],[9.834187,47.0140754],[9.8340762,47.0140516],[9.8345788,47.0139363],[9.8338287,47.0138515],[9.8342526,47.0136182],[9.8341753,47.0135371],[9.8348882,47.0131915],[9.8355974,47.0133236],[9.8355397,47.0128856],[9.8357666,47.0128748],[9.8361195,47.012531],[9.8364257,47.0128207],[9.8369845,47.0128624],[9.8375689,47.0128298],[9.838375,47.0124824],[9.8397313,47.0126543],[9.8381429,47.0129497],[9.8387737,47.0137412],[9.8410085,47.0151188],[9.843048,47.0151617],[9.8450664,47.0158238],[9.8459565,47.0159097],[9.8461578,47.0162201],[9.8464755,47.0162709],[9.8500445,47.0162437],[9.8515496,47.0165017],[9.8527287,47.0164129],[9.8535966,47.0171092],[9.8537459,47.0174322],[9.8544118,47.0174869],[9.8554817,47.0179172],[9.8561394,47.0186164],[9.8569573,47.0188022],[9.8597449,47.0232098],[9.86066,47.0233083],[9.8609425,47.022976],[9.8609306,47.0227127],[9.8615704,47.0223252],[9.8629897,47.0221793],[9.8640569,47.021858],[9.8649537,47.0219037],[9.865432,47.0215719],[9.8669262,47.0216095],[9.8671856,47.0213239],[9.8686748,47.0214273],[9.8694687,47.0211646],[9.8711818,47.0215866],[9.8717645,47.0213452],[9.8732883,47.0215703],[9.8749759,47.0211798],[9.8762464,47.0212266],[9.876715,47.0208892],[9.8777935,47.0205525],[9.8777357,47.020343],[9.8794015,47.0195565],[9.8792012,47.0193751],[9.8793618,47.0191489],[9.8791371,47.0190714],[9.879712,47.0186076],[9.8796409,47.0183857],[9.8792545,47.0183783],[9.8792564,47.0182479],[9.8803304,47.0180175],[9.8803497,47.0172237],[9.8796962,47.0168153],[9.8791882,47.0167117],[9.8792043,47.0165278],[9.878239,47.0165255],[9.8781752,47.0163308],[9.8772638,47.0162498],[9.877312,47.0157786],[9.8767655,47.0157767],[9.8767871,47.01556],[9.876469,47.015448],[9.8765185,47.0152534],[9.8761742,47.0152956],[9.8762907,47.0150983],[9.8758098,47.014991],[9.8759031,47.0146674],[9.875403,47.0142325],[9.8748128,47.0140258],[9.8733516,47.0140629],[9.8723,47.0137237],[9.8711507,47.0130577],[9.8710237,47.0124584],[9.8716205,47.0114581],[9.8720209,47.0102041],[9.8715947,47.0098895],[9.8707338,47.0096536],[9.8710676,47.009623],[9.870864,47.0095801],[9.8710102,47.0094029],[9.871721,47.0091564],[9.8725849,47.0085449],[9.8727646,47.0078021],[9.8733217,47.0074723],[9.8729345,47.006704],[9.8729353,47.0065221],[9.8732561,47.0063484],[9.8790379,47.0037113],[9.879575,47.0039599],[9.8805757,47.0035479],[9.8822311,47.0028503],[9.8833902,47.0021034],[9.8851936,47.0018458],[9.8861167,47.0013474],[9.8868172,47.0012078],[9.8875086,47.000712],[9.8887771,47.0007231],[9.8887574,47.0000873],[9.8890149,46.9997341],[9.8889332,46.9995829],[9.8892379,46.9993712],[9.8891058,46.9981327],[9.8893337,46.9973376],[9.8892489,46.9970648],[9.8897197,46.9963108],[9.8893344,46.9952654],[9.8895645,46.9948954],[9.8894959,46.9944155],[9.8896324,46.9942436],[9.889512,46.9941582],[9.8901669,46.9937777],[9.8901112,46.9934219],[9.8903251,46.9932782],[9.890057,46.9930576],[9.8906768,46.9924806],[9.8905203,46.992437],[9.8905819,46.9918511],[9.8923039,46.9903589],[9.8918993,46.9899199],[9.8917544,46.9894086],[9.8919566,46.9889257],[9.8911209,46.9883498],[9.8896808,46.9878379],[9.8890398,46.9873557],[9.8877617,46.9871266],[9.8871734,46.9865568],[9.8865604,46.9864377],[9.8860296,46.9859635],[9.8848165,46.9854648],[9.8846317,46.9843604],[9.8836801,46.9834986],[9.8837699,46.9833643],[9.8833473,46.9832018],[9.8830919,46.9832673],[9.8832814,46.9828136],[9.8837583,46.9824402],[9.8845489,46.9808478],[9.8838453,46.9803139],[9.8836397,46.9798713],[9.8831184,46.9797668],[9.882654,46.9789502],[9.8812846,46.9781936],[9.8812091,46.9779795],[9.8808701,46.9779648],[9.8799018,46.9770934],[9.8794545,46.975586],[9.8791436,46.9752411],[9.8775231,46.9749049],[9.8757003,46.9736528],[9.87559,46.9730531],[9.8747183,46.9720605],[9.8746953,46.9717197],[9.8752375,46.9708394],[9.8761684,46.9700544],[9.8760673,46.9697248],[9.8761823,46.9693527],[9.8754275,46.9679466],[9.8755831,46.9674954],[9.8741323,46.965919],[9.8723925,46.9651592],[9.8719201,46.9644218],[9.8716974,46.963712],[9.8713925,46.9635544],[9.8713461,46.9633651],[9.8707312,46.9632091],[9.8712474,46.9630939],[9.8726935,46.9618411],[9.8727069,46.9616441],[9.8730681,46.9613129],[9.8733625,46.9604167],[9.874135,46.9600913],[9.8752556,46.9592294],[9.875957,46.9591149],[9.8769039,46.9587075],[9.8787197,46.9570665],[9.8787994,46.9565917],[9.8782312,46.9552026],[9.8777518,46.9548976],[9.8777697,46.9547421],[9.87734,46.9543141],[9.8775904,46.9540529],[9.8773872,46.9537649],[9.877683,46.9535399],[9.8777636,46.9529126],[9.8771877,46.9526654],[9.8770774,46.952124],[9.87731,46.9518673],[9.8771756,46.9516063],[9.8769917,46.9513825],[9.8757946,46.950949],[9.8748781,46.9503903],[9.8751204,46.9499943],[9.8752518,46.9491922],[9.8758083,46.9488566],[9.8759078,46.9483623],[9.8767676,46.9476219],[9.8767857,46.9473671],[9.8764959,46.9472696],[9.8763553,46.9469717],[9.8765968,46.9464408],[9.8766556,46.9454028],[9.8768221,46.9452688],[9.8766918,46.9452059],[9.8767676,46.9448399],[9.8764716,46.9445647],[9.8764875,46.9441873],[9.8769756,46.9429489],[9.8769822,46.9425682],[9.8772097,46.9423552],[9.8771416,46.942023],[9.8772601,46.9418516],[9.8768439,46.9415682],[9.8768894,46.9411966],[9.8766577,46.9410832],[9.8767051,46.9408165],[9.8765706,46.9407057],[9.8777658,46.9403996],[9.8785028,46.9405938],[9.8787943,46.9404466],[9.8791116,46.9407071],[9.8798469,46.9402777],[9.8804373,46.9402636],[9.8807189,46.9400674],[9.8804886,46.9399638],[9.8806503,46.9397079],[9.8803071,46.9396665],[9.8802739,46.9393122],[9.8797484,46.9390755],[9.8795478,46.9386052],[9.8790624,46.9387428],[9.8782863,46.9385206],[9.8776839,46.9381338],[9.877653,46.9378342],[9.8773716,46.9375682],[9.877036,46.9363262],[9.8760651,46.9347505],[9.8761296,46.9346278],[9.8765201,46.9346621],[9.8776718,46.934296],[9.8783501,46.9344016],[9.8787825,46.9346505],[9.8786514,46.9350391],[9.8794348,46.9348799],[9.879917,46.9350666],[9.8807249,46.9350167],[9.8813034,46.9348433],[9.881277,46.9345869],[9.8815189,46.9344762],[9.8821654,46.9345379],[9.8831629,46.9341887],[9.8835118,46.9334498],[9.8842839,46.9331955],[9.8844069,46.9330178],[9.8887482,46.9321322],[9.8891669,46.9322733],[9.8913916,46.9317776],[9.892343,46.9318016],[9.8929503,46.9315537],[9.8935305,46.931723],[9.8944853,46.9316447],[9.8960147,46.930968],[9.896369,46.9306287],[9.8976623,46.9302133],[9.8977483,46.9297367],[9.8976295,46.9296452],[9.898527,46.9293441],[9.8993804,46.9286098],[9.9000247,46.9273371],[9.9006615,46.9271687],[9.9014469,46.9266723],[9.9025404,46.9268496],[9.9032341,46.9263981],[9.904245,46.9260309],[9.906153,46.9258293],[9.9063207,46.9253006],[9.9079539,46.9249237],[9.909922,46.9255214],[9.9104288,46.9254086],[9.9114474,46.9255082],[9.9121116,46.9260884],[9.9123097,46.9260554],[9.9152285,46.9243298],[9.9159247,46.923322],[9.9161444,46.9232535],[9.9161701,46.9224466],[9.9160433,46.922213],[9.9164982,46.9219968],[9.9165485,46.92167],[9.9174174,46.9213302],[9.9185548,46.9204316],[9.9192362,46.9202914],[9.920553,46.9197033],[9.9212472,46.9192784],[9.9215303,46.918824],[9.9226459,46.9184816],[9.9225704,46.9183793],[9.9227769,46.9182428],[9.9256515,46.9175328],[9.9262341,46.917185],[9.9283774,46.916877],[9.929816,46.916307],[9.9304469,46.9157829],[9.9321224,46.9150948],[9.932364,46.9151985],[9.9332591,46.9149809],[9.9334653,46.9147253],[9.9345957,46.9144609],[9.9346896,46.9142933],[9.9356249,46.9140631],[9.9372253,46.9133112],[9.9408198,46.9130373],[9.9419654,46.9132955],[9.942549,46.9131194],[9.9433241,46.9131534],[9.946121,46.9123495],[9.9463021,46.9126457],[9.9467847,46.9126746],[9.9479417,46.9132409],[9.9492758,46.9136064],[9.9498783,46.914272],[9.9522695,46.9143656],[9.9544638,46.9153227],[9.9590704,46.9160246],[9.9595819,46.9154233],[9.9600369,46.9151449],[9.9618033,46.9145587],[9.9615415,46.9144365],[9.9615575,46.9142341],[9.9622192,46.9134492],[9.9628286,46.913152],[9.9628827,46.9125551],[9.9631115,46.9123974],[9.9642946,46.9125685],[9.9644458,46.9127839],[9.965297,46.912361],[9.9665663,46.9122226],[9.9678174,46.9125303],[9.9689455,46.9131175],[9.9716801,46.913449],[9.972649,46.9142288],[9.972852,46.9149189],[9.9731379,46.9152198],[9.9753351,46.9157944],[9.9778951,46.9159003],[9.9787981,46.9147136],[9.9804913,46.9138501],[9.9807826,46.9133707],[9.9805829,46.9129871],[9.9806384,46.912755],[9.9810486,46.9122373],[9.981782,46.9119187],[9.9813447,46.9113294],[9.9815545,46.9106504],[9.9821675,46.9100011],[9.9822277,46.9092782],[9.9818832,46.9090809],[9.9818534,46.908644],[9.9816684,46.9083997],[9.9812616,46.9081484],[9.9816527,46.9080101],[9.9824336,46.9061986],[9.9859796,46.9054192],[9.9868058,46.9055273],[9.9869382,46.9051634],[9.9873919,46.9049106],[9.987962,46.9039047],[9.9894829,46.9031354],[9.9901098,46.9024082],[9.9908962,46.9023229],[9.9911762,46.9025207],[9.9916264,46.9023398],[9.9928285,46.9025775],[9.9929545,46.9023595],[9.993286,46.9022583],[9.9944219,46.9024038],[9.9951011,46.9021767],[9.9958154,46.9022605],[9.996858,46.9018963],[9.9973992,46.9020349],[9.9979465,46.9014215],[9.9987602,46.9011464],[9.999793,46.9003319],[10.000398,46.9001915],[10.0007348,46.8999126],[10.0033563,46.8991476],[10.0040466,46.89918],[10.0049435,46.8988926],[10.0059087,46.8987998],[10.0063911,46.8992922],[10.007078,46.8992623],[10.0076986,46.8995043],[10.0079605,46.8993435],[10.0082178,46.8998753],[10.0089947,46.8999649],[10.0097924,46.9005151],[10.0104657,46.9004128],[10.0107502,46.9005271],[10.0118738,46.9003063],[10.0127549,46.9004991],[10.0130795,46.9004364],[10.0130668,46.9002697],[10.0149284,46.9001812],[10.0160914,46.9005916],[10.0178184,46.9016148],[10.0185872,46.9011172],[10.0184982,46.900645],[10.0198597,46.898779],[10.0210721,46.898479],[10.0213875,46.8980947],[10.022202,46.8978496],[10.0223124,46.8977197],[10.0222097,46.8973765],[10.023369,46.8964873],[10.0237577,46.8965663],[10.0246565,46.8963879],[10.0258404,46.8958217],[10.0264672,46.8958057],[10.026703,46.8955394],[10.0265317,46.8953914],[10.02699,46.8947397],[10.0278794,46.8939854],[10.0280328,46.8934497],[10.0284808,46.8928337],[10.0285763,46.8919645],[10.0289388,46.8918245],[10.0292152,46.8911632],[10.0301649,46.8907317],[10.0307186,46.8897741],[10.0316446,46.8894359],[10.0317177,46.8891598],[10.0322504,46.8887234],[10.0322055,46.8880172],[10.0337746,46.8873698],[10.034654,46.8865802],[10.0351191,46.8865946],[10.0353854,46.8868855],[10.0361414,46.8866338],[10.0376296,46.8867621],[10.0393089,46.8858067],[10.0397463,46.8853941],[10.0401373,46.8846879],[10.0412394,46.883926],[10.0411007,46.883471],[10.0412743,46.8829584],[10.0419033,46.8823491],[10.0418282,46.8821633],[10.0423076,46.8812587],[10.0424375,46.8804396],[10.0434374,46.8802542],[10.0439697,46.8803257],[10.0446554,46.8800059],[10.0455458,46.879945],[10.0456638,46.879698],[10.046762,46.8790866],[10.0473814,46.8789701],[10.0503854,46.8769177],[10.0512539,46.8766298],[10.0519377,46.8767513],[10.0516523,46.8765217],[10.0515704,46.8761558],[10.0525998,46.8757467],[10.0526567,46.8754835],[10.0523956,46.8753281],[10.0523589,46.8749218],[10.0525828,46.8746941],[10.0515241,46.8737637],[10.051549,46.8731371],[10.0519829,46.8727996],[10.0516938,46.8723561],[10.0519197,46.8721581],[10.0505361,46.8709148],[10.051349,46.87036],[10.0510449,46.8701863],[10.051042,46.8697195],[10.0507716,46.8694666],[10.0506561,46.8686045],[10.0510535,46.8683506],[10.0512596,46.867942],[10.050946,46.8677015],[10.0511483,46.8668523],[10.0508821,46.8662159],[10.0507896,46.8650543],[10.0508964,46.8644202],[10.0511978,46.8639422],[10.0533238,46.8631269],[10.0539465,46.8623487],[10.0548814,46.8617049],[10.055686,46.8616047],[10.0566835,46.8620373],[10.0571974,46.8620302],[10.0595933,46.8607711],[10.0607143,46.8607307],[10.06332,46.8615573],[10.0657897,46.8613371],[10.0677484,46.8614661],[10.0686244,46.8612294],[10.0749484,46.8619436],[10.0763081,46.8616096],[10.0774736,46.8615565],[10.078015,46.8612995],[10.0806108,46.8606824],[10.0811233,46.8603852],[10.0813993,46.8605518],[10.0818302,46.8603693],[10.0825968,46.8604381],[10.0838027,46.8602106],[10.0859674,46.8606449],[10.0861451,46.8608544],[10.0874505,46.8611963],[10.0879092,46.8604946],[10.0886731,46.8598467],[10.0894902,46.8594723],[10.0913782,46.85897],[10.091911,46.8584453],[10.0926731,46.8581338],[10.0925421,46.8577873],[10.0929624,46.8570026],[10.0926775,46.8567601],[10.0916928,46.8549139],[10.0916525,46.8543584],[10.0921687,46.8536292],[10.092359,46.8523926],[10.0923344,46.8517424],[10.0919772,46.8514316],[10.0927142,46.8511482],[10.0933856,46.8505275],[10.0959965,46.8497652],[10.0961996,46.849616],[10.0961402,46.8494259],[10.0963173,46.849154],[10.096914,46.8488364],[10.0974259,46.8480245],[10.0979874,46.8475712],[10.0984532,46.8472132],[10.0991323,46.8471285],[10.1005371,46.84624],[10.1009457,46.8458682],[10.1011748,46.8453901],[10.1020351,46.8449488],[10.102573,46.8442294],[10.1029523,46.8430502],[10.103966,46.8424311],[10.1051887,46.8409011],[10.1061401,46.8409922],[10.1063242,46.841431],[10.1074253,46.841452],[10.1079712,46.8412916],[10.1083174,46.841477],[10.1089485,46.8414271],[10.1094924,46.8418055],[10.1107697,46.8416459],[10.1114637,46.8420384],[10.1125462,46.8422337],[10.1130594,46.8421755],[10.1132108,46.8424673],[10.1139157,46.8426685],[10.1144105,46.8433586],[10.1149809,46.8434052],[10.115625,46.8438677],[10.115925,46.8437676],[10.1164895,46.843951],[10.1171371,46.843753],[10.118132,46.8442827],[10.1191889,46.8441904],[10.1194101,46.8455352],[10.1201647,46.8463834],[10.1197809,46.8468797],[10.1199453,46.8473842],[10.1213384,46.8471892],[10.1221576,46.8473221],[10.1226598,46.8477746],[10.1225206,46.8479737],[10.1226419,46.8482477],[10.1230851,46.8484838],[10.1236102,46.8480851],[10.1244119,46.8482247],[10.1247655,46.8480498],[10.1257293,46.848068],[10.1271628,46.8478045],[10.1276694,46.8479799],[10.1285541,46.8476987],[10.1302004,46.8478254],[10.1315513,46.8473535],[10.1331105,46.847647],[10.1356977,46.847405],[10.1364828,46.8475729],[10.1367997,46.8474342],[10.1394105,46.8473781],[10.1403594,46.847557],[10.1417558,46.8484186],[10.1425036,46.8484855],[10.1428148,46.8487933],[10.1434357,46.8487618],[10.1439059,46.8493769],[10.1444251,46.8495384],[10.1447234,46.8498498],[10.144663,46.8502451],[10.1449726,46.8510186],[10.1444767,46.8513544],[10.1437037,46.8527945],[10.143945,46.8530736],[10.1442141,46.8554391],[10.1438365,46.8561554],[10.1434189,46.8565441],[10.1432676,46.8575226],[10.1429685,46.8579409],[10.1432295,46.8587056],[10.1432247,46.8595031],[10.1428837,46.8598019],[10.1414733,46.860422],[10.1411748,46.8610016],[10.1398097,46.8621378],[10.1406367,46.8626144],[10.1406145,46.8639872],[10.1411918,46.8647251],[10.1411856,46.8650883],[10.1409263,46.8658494],[10.1402849,46.8664591],[10.1395191,46.866791],[10.1392194,46.8671576],[10.139224,46.8673943],[10.1388122,46.8677273],[10.1391169,46.8686586],[10.1389991,46.8689025],[10.1400935,46.869539],[10.1415944,46.8697692],[10.1421853,46.8702067],[10.1422722,46.8704373],[10.1420197,46.8706994],[10.1423026,46.8712257],[10.1415784,46.8717908],[10.1409861,46.873103],[10.1410618,46.8739707],[10.1414006,46.8743252],[10.1414271,46.8746422],[10.1411203,46.8747912],[10.1408342,46.8752334],[10.1388289,46.8754978],[10.1378258,46.8758711],[10.1376533,46.8757354],[10.1306375,46.8772584],[10.1282239,46.8789612],[10.1252532,46.8797285],[10.1213968,46.8821019],[10.1173241,46.8853144],[10.1159769,46.8869144],[10.1142798,46.889648],[10.1135947,46.8903085],[10.1119219,46.8926007],[10.1099765,46.8940214],[10.1095419,46.8945157],[10.1091642,46.8946195],[10.1088485,46.8950041],[10.1086114,46.8957574],[10.1086996,46.8967827],[10.1087711,46.8971124],[10.1091559,46.8971304],[10.1090321,46.897972],[10.1097449,46.8989723],[10.1098045,46.8992999],[10.1093994,46.8997924],[10.1096012,46.9000377],[10.1097181,46.9006674],[10.1091284,46.9019574],[10.1083184,46.9024763],[10.1077767,46.9035921],[10.1070085,46.9044909],[10.1089067,46.9084225],[10.0996355,46.9169201],[10.0978312,46.9241709],[10.0981916,46.9273495],[10.1004486,46.9279654],[10.1013266,46.9279689],[10.1021596,46.9283465],[10.104798,46.9287873],[10.1059408,46.9292575],[10.1064871,46.9298915],[10.1068454,46.9311761],[10.107845,46.9319325],[10.1077148,46.9325072],[10.1083742,46.9326091],[10.1084917,46.9330225],[10.1090887,46.9332534],[10.1098271,46.933798],[10.1110156,46.9340473],[10.1111539,46.9343103],[10.1116324,46.9341987],[10.1119675,46.9344776],[10.1121278,46.9355509],[10.1119312,46.9356801],[10.1121161,46.9359948],[10.1118325,46.9364653],[10.1118892,46.9367442],[10.1122734,46.9368042],[10.1130029,46.9373496],[10.1141149,46.9370823],[10.1149869,46.9371973],[10.1154752,46.9370782],[10.1160489,46.9374079],[10.1166141,46.9375013],[10.1204008,46.9377546],[10.1211107,46.9381649],[10.1248098,46.9413995],[10.1260864,46.9427566],[10.1266383,46.9434535],[10.1277222,46.9457428],[10.1329818,46.9525716],[10.1330649,46.9530135],[10.1336385,46.953523],[10.1343357,46.9538698],[10.1348174,46.9545595],[10.1345911,46.955023],[10.1349973,46.9552706],[10.1355198,46.960169],[10.136621,46.9618101],[10.1348663,46.9659222],[10.1365331,46.9699992],[10.1371882,46.9724199],[10.1388991,46.9729892],[10.1409622,46.974705],[10.141747,46.9749695],[10.1429984,46.9760201],[10.1424127,46.9764264],[10.1422184,46.9766607],[10.1422844,46.9768055],[10.1417542,46.9771871],[10.1414725,46.9776383],[10.1415992,46.9777279],[10.1414518,46.9779107],[10.1416096,46.9790008],[10.142108,46.9797684],[10.1426812,46.9802233],[10.1435823,46.9818721],[10.1447493,46.9833775],[10.1451244,46.9834306],[10.1503451,46.9819688],[10.152387,46.9830788],[10.1535804,46.983214],[10.1558878,46.9829774],[10.1570459,46.9838021],[10.1599238,46.983687],[10.1597978,46.983871],[10.1599688,46.9841528],[10.1599834,46.9849029],[10.1589998,46.985285],[10.1580769,46.9865075],[10.158263,46.9867424],[10.1583077,46.9876152],[10.1580934,46.9877651],[10.1579046,46.988366],[10.157284,46.9890266],[10.1564656,46.9891563],[10.1559026,46.9896216],[10.1551898,46.9905383],[10.1552473,46.9909229],[10.1545573,46.9915251],[10.1543221,46.9920542],[10.1542924,46.9928606],[10.154769,46.9934556],[10.156349,46.9940395],[10.1571601,46.9956762],[10.1568328,46.9965137],[10.1568015,46.9970349],[10.1571541,46.9973157],[10.1572732,46.9976634],[10.1579448,46.9981433],[10.1588231,46.9984316],[10.1590506,46.998793],[10.1595909,46.9989187],[10.158142,46.9997794],[10.1574722,47.0008077],[10.1562093,47.0020334],[10.1555854,47.0034324],[10.1544315,47.0053758],[10.1537699,47.0055175],[10.1526986,47.0053283],[10.1466038,47.007082],[10.1445785,47.0079726],[10.1427603,47.0084581],[10.1413731,47.0091456],[10.1399561,47.0094181],[10.1327822,47.0120131],[10.1310575,47.0130255],[10.1312928,47.0131815],[10.1312803,47.0133537],[10.1309461,47.0134072],[10.1309649,47.0140982],[10.1301206,47.0144231],[10.1297175,47.0149277],[10.1283096,47.0182269],[10.1255638,47.0184489],[10.1256466,47.0194128],[10.12325,47.0221284],[10.123989,47.0237811],[10.1255574,47.023966],[10.1288944,47.0253099],[10.1292672,47.0257119],[10.1295033,47.0257579],[10.1294829,47.0262592],[10.1291085,47.0266277],[10.1297419,47.0265138],[10.1316517,47.0268308],[10.1345443,47.0293475],[10.1401712,47.0314747],[10.1441903,47.0335829],[10.1444467,47.0344346],[10.1464564,47.0373069],[10.1478272,47.0374422],[10.1516691,47.040148],[10.1551418,47.0434415],[10.1569214,47.0488758],[10.1508924,47.061813],[10.1506348,47.0618879],[10.1502443,47.0616233],[10.1496991,47.0609991],[10.1493478,47.0610768],[10.1485647,47.0609152],[10.1481144,47.0611543],[10.1451971,47.0608399],[10.1429755,47.0613207],[10.1413205,47.0622627],[10.140881,47.0622861],[10.1405809,47.0626173],[10.1406897,47.0628355],[10.140425,47.0629136],[10.1385793,47.0632685],[10.1368757,47.0632542],[10.1352375,47.0635873],[10.1346157,47.0638876],[10.1346688,47.0646829],[10.1353012,47.0671911],[10.1336925,47.0705649],[10.1337831,47.0714433],[10.1335426,47.0778897],[10.1328666,47.0783877],[10.1328468,47.0786065],[10.1325791,47.0787739],[10.1327029,47.0791452],[10.1324724,47.079175],[10.1324256,47.0793575],[10.1330761,47.0801158],[10.1329617,47.0807076],[10.1327921,47.0808381],[10.1327561,47.0815029],[10.1334242,47.0822664],[10.1342264,47.0838601],[10.1347271,47.0844078],[10.1366468,47.0849941],[10.1373613,47.0854059],[10.137449,47.0860333],[10.1376324,47.0861784],[10.1381806,47.0864881],[10.1390297,47.0865358],[10.1407606,47.0880879],[10.1409083,47.0884992],[10.1404637,47.0886438],[10.1409782,47.089223],[10.140989,47.0896555],[10.1416309,47.0902524],[10.141677,47.0907694],[10.1448815,47.0969339],[10.1471993,47.0983322],[10.1511484,47.1016009],[10.1508784,47.1018564],[10.151276,47.1031301],[10.1527816,47.1038771],[10.1533809,47.1044979],[10.1535045,47.1047663],[10.1533431,47.1050935],[10.153428,47.1052347],[10.1544652,47.1059241],[10.1543309,47.1064723],[10.1546487,47.1075029],[10.1555516,47.1085387],[10.1555066,47.1088435],[10.1560918,47.1096517],[10.1560426,47.1098407],[10.1563689,47.1105256],[10.1573312,47.1111772],[10.1576648,47.1116061],[10.1578695,47.1122313],[10.1577128,47.1125663],[10.1577269,47.1131062],[10.1583218,47.114759],[10.1593184,47.1147927],[10.1599276,47.1145305],[10.1611795,47.1143252],[10.1626615,47.1139143],[10.1629877,47.1135853],[10.1675907,47.1175093],[10.1687248,47.1191836],[10.1716882,47.1197929],[10.1727708,47.120286],[10.1753352,47.1201915],[10.1773547,47.1197269],[10.182787,47.1203123],[10.1827942,47.1196815],[10.1844802,47.1187328],[10.1865363,47.1195853],[10.1866581,47.1241011],[10.1862988,47.1289647],[10.1954042,47.130933],[10.1957077,47.1311439],[10.2030208,47.131462],[10.2056864,47.1308839],[10.2067657,47.1308937],[10.2085591,47.1316316],[10.2093749,47.1316941],[10.2105368,47.1332689],[10.2035589,47.1369803],[10.2034096,47.1424584],[10.2041019,47.1425068],[10.20444,47.1427934],[10.2061907,47.1434132],[10.2080716,47.1432961],[10.2093925,47.1443677],[10.2111277,47.1445538],[10.2116721,47.1443354],[10.2123844,47.1443595],[10.2146307,47.1437203],[10.2154316,47.1448716],[10.2172551,47.1457632],[10.2172175,47.1459595],[10.2175494,47.1463364],[10.2175228,47.1467182],[10.2188694,47.1470396],[10.219947,47.1477764],[10.2207992,47.1488755],[10.2208605,47.1492318],[10.2214442,47.1492333],[10.2218292,47.1494581],[10.2219661,47.1501755],[10.2216413,47.1502611],[10.2214481,47.1519296],[10.2220383,47.15285],[10.2203554,47.153293],[10.2198054,47.1536747],[10.219497,47.154164],[10.2189069,47.1544136],[10.216968,47.1543703],[10.2162768,47.1545702],[10.2130106,47.1575711],[10.2122271,47.1577366],[10.2109008,47.1583927],[10.2099807,47.1585866],[10.2097397,47.1584941],[10.2078395,47.1591543],[10.2081381,47.1594047],[10.2078356,47.1597967],[10.2079217,47.1599585],[10.2078221,47.1606386],[10.2076345,47.1609001],[10.2075295,47.1624913],[10.2073027,47.1629778],[10.2073451,47.1637189],[10.2083671,47.1652455],[10.2091987,47.1653655],[10.2094845,47.1669941],[10.2096173,47.1670914],[10.2091719,47.1671328],[10.209071,47.1675907],[10.2090273,47.1681552],[10.2093526,47.1684384],[10.2091604,47.1699743],[10.210448,47.17061],[10.2109863,47.1711777],[10.2114127,47.1713344],[10.2077611,47.1732424],[10.2067171,47.1734541],[10.2057548,47.1742333],[10.2053875,47.1748693],[10.2038325,47.1763525],[10.204172,47.1776823],[10.2039643,47.1778305],[10.20435,47.1791987],[10.2031403,47.1796105],[10.2021102,47.1806142],[10.2010365,47.1810047],[10.2005246,47.1814863],[10.2002387,47.1814352],[10.1997938,47.1818052],[10.1995206,47.1834831],[10.1993124,47.1838574],[10.1994507,47.1845559],[10.1990328,47.1850484],[10.1994059,47.1856677],[10.1988384,47.1861161],[10.1988242,47.1869204],[10.198637,47.1871125],[10.1988724,47.1875626],[10.1987856,47.1880691],[10.1985981,47.1882288],[10.197505,47.1884119],[10.1977177,47.1888738],[10.1976455,47.1900403],[10.1977794,47.1902449],[10.1971099,47.1914258],[10.196673,47.191764],[10.1966707,47.1920238],[10.196709,47.1922977],[10.1971301,47.1926486],[10.197131,47.1931434],[10.1968398,47.1934537],[10.1968456,47.1943657],[10.1973226,47.1944997],[10.1976143,47.1947991],[10.1987816,47.1947797],[10.1999585,47.1950107],[10.201319,47.1956366],[10.2013593,47.1958115],[10.208057,47.2014281],[10.2100308,47.2024509],[10.2103615,47.2027904],[10.2113897,47.2030773],[10.2120198,47.2037151],[10.2121155,47.2040729],[10.2126782,47.2042733],[10.2127204,47.2047919],[10.2130825,47.2053104],[10.2132254,47.2060724],[10.2134911,47.2063007],[10.2132229,47.2067123],[10.2134967,47.2070757],[10.2133051,47.2076893],[10.213449,47.2079333],[10.2129454,47.2087327],[10.2130477,47.2089209],[10.2127072,47.2091966],[10.2127446,47.2093696],[10.2125212,47.2094672],[10.2122974,47.209895],[10.2124237,47.2101999],[10.2122376,47.2105139],[10.2125015,47.21078],[10.2125813,47.2113255],[10.2123557,47.2116963],[10.2130689,47.2125214],[10.2132946,47.2131216],[10.2132154,47.2132889],[10.213448,47.2135072],[10.2132907,47.2137178],[10.2136138,47.2138238],[10.2137523,47.2141613],[10.2132721,47.2140392],[10.2131746,47.2141569],[10.2133296,47.2146136],[10.2129365,47.2153043],[10.2130704,47.2156101],[10.212938,47.2161041],[10.2130387,47.2164124],[10.2136809,47.2170078],[10.2132796,47.2175655],[10.2125641,47.2178021],[10.2124253,47.2181169],[10.2124824,47.2184974],[10.2119471,47.2191555],[10.2116243,47.2193138],[10.2117395,47.2195924],[10.211375,47.2197262],[10.2112254,47.2199613],[10.2113314,47.2201327],[10.2111719,47.2209582],[10.2127424,47.2243035],[10.2101714,47.2252374],[10.2091878,47.2259054],[10.2088047,47.2259515],[10.2082893,47.2262405],[10.2089811,47.225994],[10.2101993,47.2260067],[10.2108208,47.227191],[10.2108297,47.2274297],[10.2103368,47.2283257],[10.2103443,47.2288742],[10.2089187,47.2299575],[10.2091114,47.2301444],[10.2074675,47.2317951],[10.2074278,47.2323858],[10.2062455,47.2321805],[10.2058357,47.2324089],[10.2059699,47.2327512],[10.2057324,47.2328676],[10.2044667,47.23246],[10.203678,47.2324182],[10.2003999,47.2333182],[10.1995715,47.2339458],[10.1992873,47.2344975],[10.1975333,47.2355481],[10.1976217,47.2359687],[10.1974925,47.2363089],[10.1977477,47.2364434],[10.1976573,47.2371007],[10.1983438,47.237702],[10.1989549,47.2386161],[10.1997342,47.2385366],[10.2003143,47.238946],[10.2016694,47.2394833],[10.2022194,47.2402979],[10.2024417,47.2403846],[10.2022522,47.2409529],[10.2023145,47.2416273],[10.2038449,47.242237],[10.2049826,47.2432578],[10.2061492,47.2436033],[10.2097986,47.2474034],[10.2110919,47.2480836],[10.2175587,47.2474231],[10.2200133,47.2483664],[10.2215609,47.2487416],[10.2221404,47.2493622],[10.2236076,47.2499906],[10.2223162,47.2526605],[10.2220479,47.2535754],[10.2196503,47.254648],[10.216656,47.2553795],[10.2134624,47.2552212],[10.2114807,47.2562912],[10.208347,47.2564176],[10.2059209,47.257321],[10.2042464,47.2574268],[10.2023644,47.2571717],[10.2010562,47.2572137],[10.1984532,47.2573799],[10.1965172,47.2577181],[10.1954919,47.2586391],[10.1951655,47.2586973],[10.1948285,47.2594762],[10.1936533,47.2602776],[10.1926141,47.2603468],[10.192225,47.2610139],[10.1919837,47.2611617],[10.1908993,47.2609238],[10.1894227,47.2608631],[10.1873746,47.2620775],[10.1861799,47.261884],[10.1851874,47.2621191],[10.1842949,47.2620772],[10.1829479,47.2612546],[10.1821945,47.2615032],[10.1820914,47.2623137],[10.1798448,47.2629553],[10.1792059,47.2629814],[10.1787269,47.2631978],[10.1778329,47.2631866],[10.1751325,47.2639256],[10.1742128,47.2638805],[10.1752587,47.2654057],[10.1758656,47.2666645],[10.1769748,47.2677341],[10.1772811,47.2682218],[10.1769864,47.2688974],[10.1773395,47.2691497],[10.1776493,47.2697313],[10.1783421,47.2701114],[10.1740416,47.2702482],[10.1740474,47.2716793],[10.1736999,47.2729052],[10.1725126,47.2741231],[10.1734637,47.2750853],[10.1751976,47.275766],[10.1732237,47.2776028],[10.172077,47.2790762],[10.1737729,47.2799246],[10.1759291,47.2820496],[10.1753255,47.2878549],[10.1750444,47.2881879],[10.1751863,47.2885205],[10.1748149,47.2888189],[10.1748634,47.2892287],[10.1754938,47.2895564],[10.1763744,47.2903425],[10.1769611,47.2903266],[10.1771548,47.2904633],[10.1780577,47.292648],[10.1779305,47.2933385],[10.178248,47.2946468],[10.1791964,47.2953727],[10.1796106,47.2960256],[10.1807621,47.2962188],[10.1817097,47.2960799],[10.1825828,47.2954596],[10.18386,47.2942002],[10.1848003,47.2939253],[10.1854746,47.2939075],[10.1864833,47.2942749],[10.1866125,47.2941154],[10.188177,47.2941823],[10.1884768,47.2939094],[10.1892203,47.2940608],[10.1896365,47.2939449],[10.1899146,47.2944212],[10.190264,47.2946443],[10.1907287,47.29475],[10.1909015,47.2949792],[10.1925311,47.2952885],[10.1928574,47.2958496],[10.1937013,47.2960277],[10.1941589,47.2965596],[10.1946424,47.2966392],[10.1955518,47.2972221],[10.1966764,47.297158],[10.1982897,47.2976738],[10.1991314,47.2975423],[10.19967,47.2984184],[10.2005786,47.2987315],[10.201008,47.2992359],[10.2016905,47.2994317],[10.2016988,47.2997797],[10.2026856,47.3002427],[10.2030282,47.3006569],[10.203124,47.3013284],[10.2033606,47.3017625],[10.2038057,47.3020355],[10.2040445,47.3024239],[10.2059494,47.3029386],[10.2068915,47.3036464],[10.2082271,47.3043163],[10.2087788,47.3047961],[10.2087153,47.3051814],[10.2088859,47.3053726],[10.2092993,47.3055022],[10.2097493,47.3059343],[10.2102746,47.3059605],[10.2107426,47.3062943],[10.2103502,47.3066432],[10.2101494,47.3071513],[10.2104593,47.3073524],[10.2109305,47.3085195],[10.2113226,47.3088768],[10.2113916,47.3095594],[10.2115765,47.3098251],[10.2114928,47.3102229],[10.2117154,47.3107073],[10.2123593,47.3112242],[10.2142174,47.3114774],[10.2159718,47.311064],[10.2108904,47.3174607],[10.2107617,47.3181401],[10.2110222,47.3183948],[10.2111311,47.3189838],[10.2106968,47.3193256],[10.2104279,47.3193352],[10.2088876,47.3206166],[10.2084905,47.3205131],[10.2082876,47.320683],[10.207555,47.3207455],[10.2069154,47.3213429],[10.2067278,47.3217521],[10.2067764,47.3221276],[10.2062871,47.3226369],[10.2046967,47.3234665],[10.2043321,47.3238333],[10.2020992,47.3243869],[10.2014655,47.3248862],[10.2009184,47.3257799],[10.1995092,47.3264601],[10.1999966,47.3271018],[10.2004049,47.3272878],[10.2010045,47.3282149],[10.2019735,47.3287294],[10.2030849,47.3290115],[10.2057478,47.3304445],[10.2074173,47.3323161],[10.2075922,47.3326808],[10.2074739,47.3332634],[10.2075886,47.334663],[10.2077203,47.3347595],[10.2075853,47.3349624],[10.2072995,47.3350948],[10.2067403,47.3358527],[10.2042369,47.3367531],[10.2056614,47.3388953],[10.209397,47.3421685],[10.2097955,47.3429514],[10.2117699,47.3442185],[10.2129458,47.3456805],[10.2132677,47.3462493],[10.2132906,47.3467156],[10.2146014,47.3474971],[10.2150171,47.3480706],[10.2158513,47.348371],[10.2171047,47.3498849],[10.217576,47.3506069],[10.2172015,47.3511114],[10.2172304,47.3516338],[10.2168645,47.3531038],[10.2167827,47.3540778],[10.2169885,47.3543552],[10.2180829,47.355362],[10.219257,47.3561002],[10.2226867,47.3574034],[10.2246177,47.3588232],[10.2243151,47.3594129],[10.2247425,47.3608918],[10.2252752,47.3615744],[10.2261384,47.362393],[10.2289789,47.3633983],[10.2294885,47.36506],[10.2295119,47.3654256],[10.2292244,47.3654987],[10.2291664,47.3660512],[10.2295256,47.3665071],[10.2301435,47.3668627],[10.2306984,47.3680874],[10.2315301,47.3686565],[10.2323999,47.3689312],[10.2329811,47.3695388],[10.2347823,47.3706478],[10.2354657,47.3716381],[10.236393,47.3724418],[10.2371623,47.3735651],[10.2354775,47.3761526],[10.2328229,47.3779692],[10.2316784,47.3789694],[10.2321517,47.3793797],[10.2326213,47.3801343],[10.2334126,47.3806983],[10.234945,47.3814841],[10.2362396,47.3818426],[10.233783,47.3836824],[10.2332478,47.3846852],[10.2319415,47.3852116],[10.2308642,47.3860579],[10.2299477,47.3871317],[10.229978,47.3876605],[10.229432,47.3882082],[10.2285667,47.3885212],[10.2273932,47.3885783],[10.227051,47.388895],[10.2261571,47.3874863],[10.2243691,47.3870561],[10.2229828,47.3862242],[10.2223478,47.3857194],[10.2215312,47.3846978],[10.2202915,47.3842095],[10.219542,47.3837309],[10.219092,47.3829376],[10.2185199,47.382446],[10.2172527,47.382132],[10.2163221,47.3822667],[10.2148097,47.3819742],[10.2125912,47.3803897],[10.2122317,47.3810394],[10.210529,47.3817827],[10.2099678,47.3817842],[10.2095887,47.3820646],[10.2092905,47.3825807],[10.2087984,47.3826213],[10.208345,47.3829448],[10.206915,47.3832547],[10.2044891,47.382782],[10.2041598,47.3829971],[10.2033327,47.3826015],[10.2027025,47.3827205],[10.2023694,47.3830657],[10.2013133,47.3830254],[10.2008756,47.3837227],[10.2000489,47.3832803],[10.1998763,47.3833352],[10.1995964,47.3835856],[10.1995973,47.3840539],[10.1988971,47.3843229],[10.199052,47.3849418],[10.1980515,47.3851724],[10.1977825,47.3854873],[10.1971231,47.3857991],[10.197194,47.3862398],[10.1961787,47.3870755],[10.1958352,47.3878531],[10.195152,47.3885014],[10.1952067,47.3892011],[10.1950843,47.3893456],[10.1927955,47.3895138],[10.1920493,47.3893561],[10.1910292,47.3897772],[10.1900218,47.3894582],[10.1872167,47.3899869],[10.1852497,47.3907008],[10.1839532,47.3913576],[10.1830864,47.3919966],[10.181849,47.3924258],[10.1814828,47.3914369],[10.1813857,47.389859],[10.1817788,47.3883694],[10.1823408,47.3883317],[10.1827194,47.3880674],[10.1813043,47.3872516],[10.1765361,47.3852653],[10.1723922,47.3858016],[10.1693975,47.3858299],[10.1690163,47.3808061],[10.1689852,47.375086],[10.1695804,47.3712997],[10.1658749,47.3688749],[10.149868,47.3671056],[10.1416871,47.36718],[10.1379211,47.3678872],[10.1193354,47.375613],[10.0998516,47.3547618],[10.0828437,47.3938062],[10.082944,47.3943219],[10.0837398,47.3951911],[10.084322,47.3965487],[10.0850837,47.3971214],[10.0850915,47.3975537],[10.0857386,47.3977365],[10.0858631,47.3982158],[10.0862447,47.3983101],[10.0861931,47.3989269],[10.0863418,47.3992201],[10.0862396,47.3995221],[10.0860047,47.3997289],[10.0850176,47.3997246],[10.0840714,47.400568],[10.082779,47.4007526],[10.0816502,47.4014019],[10.0815306,47.4020789],[10.0810777,47.402649],[10.0808374,47.4034735],[10.0797526,47.4042951],[10.0789487,47.4044586],[10.0784758,47.4040397],[10.0780117,47.4039624],[10.0767755,47.4042701],[10.0756282,47.4047647],[10.0751938,47.4053938],[10.0745163,47.4054325],[10.0735985,47.4059987],[10.0729817,47.4060999],[10.0721099,47.4070853],[10.0711094,47.4073598],[10.0704246,47.4077572],[10.0709159,47.4088166],[10.0706265,47.4094503],[10.0702711,47.4096384],[10.0691713,47.4097939],[10.0693077,47.4099941],[10.0691405,47.410176],[10.0696075,47.4103783],[10.0706826,47.4101472],[10.0721615,47.4113103],[10.0720364,47.4116965],[10.0721334,47.4119552],[10.0718223,47.4124799],[10.0722694,47.4132541],[10.0727811,47.4134127],[10.0736254,47.4144158],[10.07418,47.4147226],[10.075062,47.4148359],[10.0766079,47.4144127],[10.0775115,47.4150266],[10.0787057,47.4149409],[10.0791887,47.4153053],[10.0811574,47.4149576],[10.0828231,47.4150535],[10.083491,47.4146608],[10.0850876,47.4146543],[10.0854595,47.4145086],[10.0862173,47.4148504],[10.0870261,47.4148292],[10.0880077,47.4151487],[10.0891585,47.4160122],[10.0901565,47.4159999],[10.091865,47.416635],[10.0937374,47.4168811],[10.0942462,47.4171619],[10.0945516,47.4175711],[10.0956756,47.4178841],[10.095742,47.4181962],[10.0953157,47.4184624],[10.0953906,47.4189996],[10.0952481,47.4194228],[10.0954754,47.4196214],[10.09534,47.420167],[10.0957771,47.4205334],[10.0955959,47.4212544],[10.0958522,47.4215716],[10.095723,47.4218883],[10.0958577,47.4221837],[10.0963704,47.4224419],[10.0974572,47.4236856],[10.0982501,47.4239864],[10.0987778,47.4246232],[10.1001786,47.4254252],[10.1006207,47.4259791],[10.1055856,47.4287167],[10.0952196,47.4395946],[10.0938486,47.4404644],[10.093812,47.4406599],[10.0940735,47.4410292],[10.0935814,47.4414443],[10.0929555,47.443937],[10.0931789,47.4445899],[10.0933163,47.4459436],[10.0930751,47.4465187],[10.0930824,47.4475295],[10.0933124,47.4482166],[10.0939407,47.448428],[10.0946182,47.449003],[10.094458,47.4496194],[10.0949886,47.4498982],[10.0944396,47.4504907],[10.0946212,47.4515558],[10.0936551,47.4524412],[10.0932897,47.4532181],[10.0932301,47.4538973],[10.0933982,47.4542685],[10.0931874,47.4545765],[10.0926617,47.4548518],[10.091681,47.4567738],[10.091967,47.457575],[10.091242,47.4581753],[10.0916603,47.4588501],[10.0911584,47.4593286],[10.0902015,47.4594178],[10.0895487,47.460386],[10.0891574,47.4603703],[10.0881597,47.4601591],[10.0877275,47.4598635],[10.0875972,47.4596485],[10.0877787,47.4587878],[10.0866389,47.4586574],[10.0854553,47.4591743],[10.0847912,47.4590678],[10.0839316,47.4585599],[10.0830178,47.4574798],[10.0826948,47.4566489],[10.0809315,47.4554388],[10.0805676,47.4553604],[10.0782912,47.4554922],[10.0770459,47.4561997],[10.0755976,47.4563506],[10.0745316,47.4562334],[10.0736161,47.4556002],[10.0720537,47.4562795],[10.0716476,47.4562179],[10.07083,47.4557547],[10.0699906,47.4559503],[10.0703435,47.4564902],[10.0701987,47.4570687],[10.0703011,47.4574631],[10.0693544,47.4587456],[10.0691602,47.4595658],[10.0683476,47.4608246],[10.0682773,47.4612097],[10.0672759,47.4617193],[10.0666461,47.4616846],[10.0661539,47.461877],[10.0653047,47.4625567],[10.064681,47.4636357],[10.0544642,47.4661832],[10.0534684,47.4668571],[10.0535386,47.4674116],[10.0530259,47.468205],[10.0529198,47.4692241],[10.0516631,47.4702119],[10.0516746,47.4709949],[10.052524,47.4717409],[10.0525519,47.4720535],[10.0532162,47.4729208],[10.0531826,47.473288],[10.0545474,47.4741941],[10.0545611,47.4748077],[10.0541492,47.4752526],[10.0541256,47.4758854],[10.053561,47.4763913],[10.0530726,47.4762553],[10.05266,47.4763465],[10.051472,47.4780921],[10.0452827,47.4848597],[10.0455838,47.485504],[10.0470151,47.4857007],[10.0471605,47.4862565],[10.0469647,47.4864854],[10.0460136,47.4867073],[10.0455791,47.4872006],[10.0447745,47.4876222],[10.0423303,47.487615],[10.0413147,47.4880396],[10.0404806,47.4880408],[10.0400043,47.4884173],[10.0392824,47.4885725],[10.0392347,47.4887777],[10.0387454,47.4889462],[10.0380986,47.4889512],[10.0374328,47.4891775],[10.0347723,47.4885363],[10.0311271,47.4866721],[10.0287781,47.4858083],[10.0281548,47.4853983],[10.025854,47.4850764],[10.023014,47.4841071],[10.0197876,47.4837661],[10.0190511,47.4842904],[10.0183205,47.4842811],[10.01814,47.4844427],[10.0169792,47.4843876],[10.0163421,47.4848333],[10.0150667,47.4842461],[10.0145351,47.4836254],[10.0127333,47.4825562],[10.0102023,47.4818014],[10.009316,47.4819812],[10.0089202,47.4822654],[10.0065783,47.4821945],[10.0059993,47.4823742],[10.004947,47.4822871],[10.0031638,47.4817888],[10.0028413,47.4818878],[10.00225,47.4817773],[10.0011688,47.4822236],[10.0007641,47.4821056],[9.995062,47.486256],[9.9886762,47.4970553],[9.9873585,47.4984652],[9.9882285,47.4990158],[9.9906886,47.4998576],[9.9924577,47.5010441],[9.9931302,47.5012728],[9.9956949,47.5027787],[9.993434,47.5040812],[9.9895824,47.5057422],[9.9896539,47.5058857],[9.9891174,47.5062823],[9.9887951,47.5070082],[9.9877199,47.5080625],[9.9874067,47.5086599],[9.9845689,47.5109708],[9.98426,47.5109817],[9.9838722,47.5106848],[9.9825256,47.5101924],[9.9812178,47.5104642],[9.9805302,47.510904],[9.9805799,47.5112007],[9.9801873,47.5112536],[9.9800706,47.5116765],[9.9796207,47.5117539],[9.9794049,47.5125424],[9.9791105,47.5129612],[9.9788603,47.5128711],[9.9781124,47.513516],[9.9770761,47.5137543],[9.9752703,47.5146721],[9.974553,47.5147257],[9.9743277,47.5150377],[9.9732865,47.5154715],[9.9716781,47.5155027],[9.9714708,47.5157938],[9.9716943,47.5160705],[9.9716407,47.5164437],[9.9712722,47.5166998],[9.9710028,47.5175228],[9.9690353,47.5187451],[9.9685714,47.5187998],[9.9672952,47.519397],[9.9668876,47.5196465],[9.966745,47.5199645],[9.9660235,47.5202411],[9.965262,47.5208928],[9.9650197,47.5214724],[9.9653158,47.5217462],[9.9650897,47.5222032],[9.9654166,47.5225843],[9.9650987,47.5227598],[9.9650238,47.5230008],[9.9658915,47.5232453],[9.9665241,47.5239913],[9.9677146,47.5245966],[9.9678707,47.5250435],[9.9673076,47.5269416],[9.9682728,47.5277521],[9.9683952,47.5280172],[9.9682452,47.5284291],[9.9674008,47.5292272],[9.9676615,47.5297984],[9.9672274,47.529967],[9.9672379,47.5303459],[9.9656396,47.5297482],[9.9652665,47.5301229],[9.9654358,47.531212],[9.9648667,47.5321572],[9.9653541,47.5327035],[9.965647,47.5335378],[9.9647039,47.53539],[9.9656066,47.535635],[9.9659308,47.5358762],[9.9652584,47.5367921],[9.9648355,47.538031],[9.9652781,47.5382982],[9.9666628,47.5383649],[9.9670419,47.5385201],[9.9675259,47.5394052],[9.9670798,47.5396531],[9.9673335,47.5400882],[9.9674189,47.5407242],[9.9671261,47.5413182],[9.9686922,47.5423079],[9.9690572,47.5427272],[9.9707908,47.543496],[9.9707943,47.5439129],[9.9712923,47.5443472],[9.9705441,47.5450999],[9.9707109,47.5457143],[9.9689381,47.5458864],[9.9686045,47.5462515],[9.9680487,47.5463551],[9.9660885,47.5443333],[9.9647875,47.5443643],[9.9642754,47.5434194],[9.9639461,47.5430468],[9.9638171,47.5430908],[9.9631795,47.54229],[9.9608747,47.5426971],[9.9597903,47.5432396],[9.959313,47.5433341],[9.9588525,47.5431711],[9.9589926,47.5420847],[9.9597883,47.5416456],[9.9605406,47.5414685],[9.9605075,47.5405426],[9.9602242,47.5396115],[9.9595222,47.5387275],[9.9594806,47.5381843],[9.9600452,47.5379516],[9.9604784,47.5375641],[9.9604294,47.5374103],[9.9606765,47.5373146],[9.960639,47.5371621],[9.9613937,47.536743],[9.9616112,47.5364565],[9.9620302,47.536539],[9.9623689,47.5359521],[9.9635293,47.5352522],[9.963846,47.5352955],[9.9639619,47.5351159],[9.9636997,47.5347198],[9.962432,47.5344658],[9.9613663,47.5350654],[9.9591188,47.534512],[9.9587085,47.5345659],[9.9578418,47.5349412],[9.955022,47.5355119],[9.9510228,47.5357898],[9.9498327,47.5362185],[9.9486241,47.5364394],[9.9442264,47.5369196],[9.9410791,47.5382227],[9.9399768,47.5370973],[9.9377627,47.5354043],[9.9378637,47.5353438],[9.9366369,47.5342485],[9.9360076,47.5338907],[9.9357996,47.5340474],[9.9341642,47.5331657],[9.9335226,47.5326499],[9.9332495,47.5329367],[9.9310887,47.5326209],[9.9295943,47.5317494],[9.9293385,47.5317699],[9.9278706,47.531134],[9.9273641,47.5310106],[9.9265238,47.5312231],[9.9252336,47.5306194],[9.9247881,47.530716],[9.9244153,47.5304204],[9.9245019,47.5302509],[9.9240209,47.5303524],[9.9234631,47.5299741],[9.9230704,47.5299231],[9.9228792,47.530101],[9.9226736,47.529984],[9.9226259,47.5297261],[9.9218947,47.5296364],[9.9206829,47.529679],[9.920315,47.5299661],[9.9189379,47.5300457],[9.9186198,47.5302125],[9.9177314,47.5301282],[9.9178938,47.5303366],[9.9177447,47.5305063],[9.916818,47.5308687],[9.916102,47.5315741],[9.9154907,47.5318895],[9.9142825,47.5321559],[9.913579,47.532546],[9.9132417,47.5328488],[9.9126888,47.5340701],[9.9125956,47.5344749],[9.9127099,47.5345899],[9.9124635,47.5346571],[9.9115228,47.5362202],[9.9093139,47.5376052],[9.9091923,47.538067],[9.9087418,47.5381773],[9.9085306,47.5384213],[9.9084899,47.5390646],[9.9086042,47.5391829],[9.9083958,47.5398195],[9.908562,47.5403261],[9.9084829,47.540659],[9.9073854,47.5415668],[9.9070639,47.5415799],[9.9066603,47.5421716],[9.9055102,47.5423796],[9.9050315,47.5427432],[9.9043041,47.5429458],[9.9040468,47.5432234],[9.9026328,47.5437842],[9.9020301,47.5441845],[9.9007569,47.5441056],[9.9001796,47.5442295],[9.8993513,47.54475],[9.8990646,47.5447119],[9.8988964,47.5444887],[9.8983228,47.5447794],[9.8979382,47.5445565],[9.8972933,47.5449505],[9.8957433,47.5446691],[9.8945305,47.5446923],[9.8936614,47.5444421],[9.8931985,47.5446013],[9.8926711,47.544241],[9.8917638,47.5440465],[9.8914297,47.544272],[9.8910586,47.5439703],[9.8900866,47.5442196],[9.8894515,47.5441899],[9.8891039,47.5439867],[9.8887369,47.5445158],[9.8882687,47.5444155],[9.8877304,47.5448014],[9.8865223,47.5451914],[9.8864594,47.5454732],[9.8867232,47.5457259],[9.886709,47.545944],[9.8855211,47.5461673],[9.8850004,47.5465099],[9.8850634,47.5468327],[9.8837835,47.5470095],[9.8835535,47.5473525],[9.8825381,47.547406],[9.8823557,47.547914],[9.8819132,47.5478859],[9.8812471,47.5481426],[9.8805353,47.5478823],[9.8802185,47.5479161],[9.8798848,47.547689],[9.8790388,47.5468605],[9.8761113,47.5447604],[9.8751486,47.543427],[9.8750756,47.5430972],[9.8753298,47.5427293],[9.8770889,47.5421697],[9.8777778,47.5417796],[9.8780368,47.5387569],[9.8774828,47.5375434],[9.8760545,47.53611],[9.8762169,47.5351466],[9.8761068,47.5349028],[9.8739022,47.533643],[9.8739141,47.5334428],[9.8753682,47.5324997],[9.8757039,47.5318758],[9.8755805,47.5309226],[9.8752085,47.5301724],[9.8750398,47.5292712],[9.8745052,47.5285372],[9.8734931,47.5290074],[9.8734397,47.5297003],[9.8731886,47.5300198],[9.8713604,47.5304737],[9.8702142,47.5311766],[9.8695717,47.5311755],[9.8685394,47.5320157],[9.8677831,47.5316531],[9.8671793,47.5316917],[9.8659894,47.5322392],[9.8650467,47.5328915],[9.864252,47.5331123],[9.8634514,47.5335767],[9.8620257,47.533321],[9.8610119,47.5337684],[9.8595397,47.5335531],[9.8583884,47.5338767],[9.8581924,47.5342334],[9.8581168,47.5350378],[9.8570875,47.5356694],[9.856681,47.5361284],[9.8561091,47.5360037],[9.855733,47.5361321],[9.8558281,47.536842],[9.8554254,47.5374405],[9.8554259,47.5377758],[9.8544819,47.5383804],[9.8540536,47.5394012],[9.8535438,47.5399356],[9.8524872,47.5404213],[9.8518327,47.5404264],[9.8512872,47.5408363],[9.8506344,47.5408279],[9.8501817,47.5412159],[9.8503856,47.5414593],[9.8502301,47.5416393],[9.8485385,47.5421565],[9.8469635,47.5421057],[9.8458275,47.5417587],[9.8457641,47.5415569],[9.8444604,47.541302],[9.84334,47.5418338],[9.8425879,47.5416562],[9.8418041,47.5420234],[9.8412362,47.5420921],[9.8405896,47.541952],[9.8402273,47.5423838],[9.8395034,47.5426338],[9.8391804,47.5430386],[9.8382582,47.5429873],[9.8377121,47.5431431],[9.8373898,47.5428634],[9.8370711,47.5428226],[9.8358299,47.5433873],[9.8345402,47.5434398],[9.8341304,47.5437111],[9.8340238,47.5441238],[9.833717,47.5442316],[9.8310515,47.5444144],[9.8299455,47.5443349],[9.8297825,47.5445115],[9.8299761,47.5447566],[9.8292068,47.5458384],[9.8293016,47.5461786],[9.8281952,47.5466211],[9.8257334,47.5467348],[9.8249594,47.5473079],[9.824275,47.54744],[9.8227589,47.5474921],[9.8217874,47.5473124],[9.8173521,47.5475665],[9.8166094,47.5474227],[9.815755,47.5476954],[9.8156159,47.5479309],[9.8157462,47.5485584],[9.8154797,47.5487024],[9.8150703,47.5496414],[9.8155683,47.5497904],[9.816094,47.5502478],[9.8160161,47.5505776],[9.816779,47.5512833],[9.8164672,47.5514028],[9.8168558,47.5530333],[9.818868,47.5544782],[9.8205186,47.5547582],[9.8210818,47.5550018],[9.8209681,47.5550907],[9.8213294,47.5553984],[9.8217918,47.5561786],[9.8231675,47.5567888],[9.8236391,47.5572097],[9.8237574,47.5574255],[9.8236383,47.5581508],[9.8246588,47.5584896],[9.8251384,47.5590249],[9.8256191,47.5592156],[9.82568,47.5597995],[9.8259626,47.5604206],[9.8260778,47.5614013],[9.825764,47.5623382],[9.8258178,47.5626536],[9.8256374,47.5627076],[9.8253225,47.5633446],[9.8241416,47.5641621],[9.8238051,47.5648547],[9.8231654,47.5654083],[9.8217892,47.5684915],[9.822012,47.5692465],[9.8217886,47.5696826],[9.8218934,47.5698869],[9.8214515,47.5699712],[9.8214421,47.5701456],[9.8207568,47.5708563],[9.821139,47.570961],[9.8216812,47.5714644],[9.8225572,47.5715307],[9.8229008,47.5719526],[9.8228667,47.5721122],[9.8246699,47.5727235],[9.8258078,47.5737916],[9.8262153,47.5763845],[9.8267452,47.576773],[9.8271117,47.5773637],[9.8271618,47.5775984],[9.8269297,47.577967],[9.8269647,47.5784949],[9.8273748,47.5786381],[9.8272819,47.579972],[9.8262115,47.5804281],[9.825545,47.5804194],[9.8245677,47.5809429],[9.8247886,47.5810366],[9.8248624,47.5817335],[9.824692,47.5826788],[9.824908,47.5828301],[9.8245695,47.583346],[9.8242085,47.5835524],[9.824458,47.5839587],[9.8243047,47.5840904],[9.8245317,47.584328],[9.8244331,47.5846681],[9.8246,47.5848894],[9.8244482,47.5855651],[9.8245928,47.5859394],[9.8238141,47.5871045],[9.8225593,47.5874444],[9.8204396,47.5875822],[9.8195601,47.5883167],[9.8177293,47.5888826],[9.8168839,47.5886294],[9.8164092,47.5887513],[9.815324,47.588111],[9.81414,47.5880685],[9.813922,47.5886213],[9.8131246,47.5893303],[9.8123951,47.5896899],[9.811017,47.5899847],[9.8107258,47.5905141],[9.8108612,47.5910715],[9.8098576,47.5917026],[9.8092067,47.5918],[9.809125,47.5923651],[9.8084355,47.5924547],[9.8077085,47.5927893],[9.807489,47.5931306],[9.8070102,47.5933061],[9.8058647,47.5941751],[9.8046999,47.5941901],[9.8043519,47.5945297],[9.8042591,47.5949379],[9.8032214,47.5953328],[9.802334,47.5959391],[9.8004904,47.5956639],[9.8002494,47.5957687],[9.800254,47.5960483],[9.7999295,47.5960966],[9.799545,47.5955243],[9.7988053,47.5948847],[9.7980299,47.5945141],[9.7962866,47.5941769],[9.7957507,47.593661],[9.7944526,47.5944066],[9.7939174,47.5943306],[9.7931764,47.5938993],[9.7924502,47.5939394],[9.7915147,47.5935167],[9.7911341,47.5937856],[9.790242,47.5935355],[9.7898757,47.5941396],[9.7875825,47.5940516],[9.7868772,47.5942907],[9.7852097,47.5936527],[9.7849428,47.5938708],[9.7846484,47.5945519],[9.7842214,47.5947633],[9.7829654,47.5941917],[9.7821755,47.5941701],[9.7814016,47.5945296],[9.7810287,47.5943119],[9.7809497,47.5940574],[9.7803686,47.5940346],[9.7793571,47.5945108],[9.7786847,47.5954615],[9.7769663,47.5954393],[9.7762168,47.5945156],[9.7763964,47.5939158],[9.776238,47.5935048],[9.7757535,47.5933236],[9.7725838,47.590269],[9.7721375,47.5892347],[9.7712702,47.588793],[9.7694887,47.5886272],[9.7695536,47.5879387],[9.7693306,47.5873852],[9.7686305,47.5874843],[9.7678952,47.5882816],[9.7665903,47.5892222],[9.7660508,47.5892976],[9.7656021,47.5890994],[9.7651978,47.5882489],[9.7651296,47.5872932],[9.7652712,47.5866768],[9.7660127,47.5854955],[9.7659195,47.5853502],[9.7649179,47.5854054],[9.7641741,47.5864113],[9.7639436,47.586507],[9.763245,47.5863882],[9.7627045,47.5857407],[9.7623937,47.5847204],[9.7606797,47.5835084],[9.7612558,47.5820605],[9.7620213,47.5814015],[9.7619689,47.5809636],[9.7604348,47.5806409],[9.7589838,47.5799299],[9.7567248,47.5798834],[9.7564217,47.5797592],[9.7559216,47.5785067],[9.7556871,47.5769226],[9.7554124,47.5761496],[9.7555216,47.5754219],[9.7561875,47.5740522],[9.7564389,47.5731565],[9.7564395,47.5727671],[9.7560353,47.5723594],[9.7553629,47.5721524],[9.7535707,47.5724823],[9.7515849,47.5720642],[9.7512659,47.5718982],[9.7508723,47.5712456],[9.7490214,47.5709375],[9.7480649,47.5705239],[9.7480446,47.5701933],[9.7484708,47.5695199],[9.7491461,47.5691455],[9.751599,47.5684444],[9.7520092,47.5678974],[9.7520662,47.5674668],[9.7508407,47.5665694],[9.7496662,47.5661893],[9.7483992,47.5654259],[9.7473607,47.5642901],[9.747061,47.5622631],[9.7472246,47.5611132],[9.7469193,47.5605774],[9.7448944,47.5593952],[9.7434285,47.5588072],[9.7433486,47.5581973],[9.7435161,47.5578867],[9.7459663,47.5574257],[9.7467584,47.55705],[9.7472809,47.5563902],[9.7470841,47.555687],[9.7465278,47.5552052],[9.7451807,47.5546768],[9.7430462,47.5552263],[9.7416897,47.5548801],[9.7410251,47.5542594],[9.7406687,47.553433],[9.7406292,47.5517853],[9.7399294,47.5512435],[9.7385855,47.5508046],[9.7380101,47.5496959],[9.7375979,47.5482928],[9.7369963,47.5478127],[9.7355309,47.5470994],[9.7351711,47.5466141],[9.7350884,47.545572],[9.7359712,47.5433848],[9.7357121,47.5417777],[9.7362038,47.5406408],[9.7363064,47.5400062],[9.7360511,47.5375079],[9.7367629,47.5364225],[9.7368438,47.5358733],[9.7367142,47.5351022],[9.7364616,47.5346929],[9.7358194,47.534278],[9.7347836,47.5339558],[9.7327823,47.5336621],[9.7310016,47.5340519],[9.7303002,47.5340605],[9.725635,47.5328212],[9.6803596,47.5233576],[9.5587204,47.5418932],[9.5618255,47.5045585],[9.5612987,47.5000845],[9.5613034,47.498548],[9.5619967,47.4962948],[9.5634728,47.4942207],[9.5650344,47.4928774],[9.5662306,47.4921022],[9.5787104,47.4853513],[9.5806089,47.484154],[9.5816705,47.4832853],[9.5830298,47.4817344],[9.5929211,47.4659003],[9.5951426,47.4633095],[9.5958388,47.4628414],[9.5972223,47.4622658],[9.600392,47.4616476],[9.6013967,47.4616002],[9.6029192,47.4620083],[9.604186,47.4628591],[9.6050548,47.4640063],[9.6059132,47.4664064],[9.6066372,47.4698438],[9.6076392,47.4704919],[9.609044,47.4705422],[9.6105902,47.4700718],[9.6117717,47.4692689],[9.6169671,47.4619427],[9.6206905,47.4583866],[9.6223413,47.457472],[9.6244102,47.4569416],[9.6262562,47.4566924],[9.6421791,47.4560666],[9.6458081,47.4556356],[9.6553647,47.4540485],[9.6580748,47.4529725],[9.658994,47.4522045],[9.6594498,47.4513821],[9.6590373,47.4491225],[9.6579866,47.4477909],[9.6473516,47.440331],[9.6458783,47.4388518],[9.6451212,47.4378008],[9.6446502,47.4368678],[9.6443633,47.4358537],[9.6442934,47.434823],[9.6444766,47.4336636],[9.6450712,47.4320533],[9.6491552,47.4244214],[9.6500921,47.421848],[9.6504423,47.4204335],[9.6510548,47.4164228],[9.6518975,47.4083614],[9.6516178,47.404626],[9.6543745,47.4043994],[9.6573329,47.400157],[9.6587364,47.3985863],[9.6600883,47.3975456],[9.6624418,47.3963943],[9.6706081,47.3936814],[9.6724544,47.3926214],[9.6734235,47.3915289],[9.6740824,47.3901488],[9.6738445,47.3838745],[9.6731406,47.3810655],[9.6712239,47.3784932],[9.6702523,47.3774367],[9.6658836,47.373642],[9.6634007,47.3717617],[9.6624091,47.3710805],[9.6604187,47.3701301],[9.6567411,47.3688256],[9.6538665,47.3680802],[9.6505343,47.3675416],[9.6474958,47.3673501],[9.6394602,47.3674978],[9.6353723,47.3673698],[9.6303975,47.3664187],[9.6284049,47.365888],[9.6262729,47.3650807],[9.6244598,47.3661451],[9.6052835,47.3514775],[9.6007126,47.3469074],[9.5996599,47.3454983],[9.5947963,47.3337548],[9.5892637,47.319113],[9.5882928,47.317549],[9.5835354,47.3126155],[9.5814429,47.3110644],[9.5789382,47.3098531],[9.5655848,47.3041205],[9.5565198,47.2984176],[9.5554404,47.2973253],[9.5547007,47.2961298],[9.5521166,47.2885047],[9.5513322,47.2867942],[9.549374,47.2840058],[9.5461797,47.2800301],[9.5454785,47.2794812],[9.5400379,47.2764186],[9.5329199,47.2729678],[9.5317769,47.272001],[9.5307487,47.270581]]]}}